{"type": "FeatureCollection", "features": [{"type": "Feature", "geometry": {"type": "Point", "coordinates": [133.496088, 33.560211]}, "properties": {"amenity": "hospital", "healthcare": "hospital", "name": "もみのき病院", "official_name": "もみのき病院", "short_name": "もみのき病院", "name:ja-Hira": "もみのきびょういん", "name:ja-Latn": "Mominoki Byoin", "opening_hours": "Mo,We,Fr 08:30-17:30,18:00-20:00; Tu,Th 08:30-17:30; Sa 08:30-17:00; PH off; Dec 31-Jan 03 off", "healthcare:speciality": "internal;cardiology;gastroenterology;neurology;palliative;neurosurgery;paediatrics;ophthalmology;psychiatry;physiatry;radiology;anaesthetics", "website": "http://mominoki-hp.or.jp/", "addr:full": "高知県高知市塚ノ原６番地１", "addr:country": "JP", "addr:province": "高知県", "addr:city": "高知市", "addr:neighbourhood": "塚ノ原", "beds": "60", "source": "厚生労働省 医療情報ネットのオープンデータ (2026-06-01)", "_id": "3911393100120", "_座標の出典": "原データ"}}, {"type": "Feature", "geometry": {"type": "Point", "coordinates": [133.55517, 33.580585]}, "properties": {"amenity": "hospital", "healthcare": "hospital", "name": "いずみの病院", "official_name": "いずみの病院", "short_name": "いずみの病院", "name:ja-Hira": "いずみのびょういん", "name:en": "Izumino Hospital", "opening_hours": "Mo,Tu,We,Th 09:00-12:30,13:30-17:00; Fr,Sa 09:00-12:30,13:00-17:00; PH off; Dec 30-Jan 03 off", "healthcare:speciality": "internal;endocrinology;cardiology;gastroenterology;neurology;surgery;neurosurgery;cardiothoracic_surgery;vascular_surgery;abdominal_surgery;orthopaedics;urology;physiatry;radiology;anaesthetics", "website": "http://www.izumino.or.jp", "addr:full": "高知県高知市薊野北町２丁目１０番５３号", "addr:country": "JP", "addr:province": "高知県", "addr:city": "高知市", "addr:neighbourhood": "薊野北町二丁目", "addr:block_number": "10", "addr:housenumber": "53", "beds": "238", "source": "厚生労働省 医療情報ネットのオープンデータ (2026-06-01)", "_id": "3911393100250", "_座標の出典": "原データ"}}, {"type": "Feature", "geometry": {"type": "Point", "coordinates": [133.57961, 33.566145]}, "properties": {"amenity": "hospital", "healthcare": "hospital", "name": "高知高須病院", "official_name": "高知高須病院", "short_name": "高知高須病院", "name:ja-Hira": "こうちたかすびょういん", "name:ja-Latn": "Kochi Takasu Byoin", "opening_hours": "Mo,We,Fr 08:30-23:00; Tu,Th 08:30-21:30; Sa 09:00-21:30; PH off; Dec 29-Jan 03 off", "healthcare:speciality": "internal;endocrinology;cardiology;gastroenterology;nephrology;dialysis;surgery;orthopaedics;urology;anaesthetics", "website": "https://www.takasuhp.or.jp/", "addr:full": "高知県高知市大津乙２７０５－１", "addr:country": "JP", "addr:province": "高知県", "addr:city": "高知市", "addr:neighbourhood": "大津乙", "beds": "63", "source": "厚生労働省 医療情報ネットのオープンデータ (2026-06-01)", "_id": "3911393100410", "_座標の出典": "原データ"}}, {"type": "Feature", "geometry": {"type": "Point", "coordinates": [133.58489, 33.531425]}, "properties": {"amenity": "hospital", "healthcare": "hospital", "name": "高知県・高知市病院企業団立高知医療センター", "official_name": "高知県・高知市病院企業団立高知医療センター", "short_name": "高知医療センター", "name:ja-Hira": "こうちけんこうちしびょういんきぎょうだんりつこうちいりょうせんたー", "name:en": "kochi health sciences center", "opening_hours": "Mo,Tu,We,Th,Fr 08:30-12:00,13:00-16:30; PH off; Dec 29-Jan 03 off", "healthcare:speciality": "general", "emergency": "yes", "website": "https://www2.khsc.or.jp", "addr:full": "高知県高知市池２１２５－１", "addr:country": "JP", "addr:province": "高知県", "addr:city": "高知市", "addr:neighbourhood": "池", "beds": "620", "source": "厚生労働省 医療情報ネットのオープンデータ (2026-06-01)", "_id": "3911393100540", "_座標の出典": "原データ"}}, {"type": "Feature", "geometry": {"type": "Point", "coordinates": [133.541093, 33.564901]}, "properties": {"amenity": "hospital", "healthcare": "hospital", "name": "近森オルソリハビリテーション病院", "official_name": "近森オルソリハビリテーション病院", "short_name": "近森オルソリハビリテーション病院", "name:ja-Hira": "ちかもりおるそりはびりてーしょんびょういん", "name:en": "Chikamori Ortho-Rehabilitation Hospital", "opening_hours": "Mo,Tu,We,Th,Fr 09:00-12:00,13:00-17:00; PH off; Dec 31-Jan 03 off", "healthcare:speciality": "internal;orthopaedics;physiatry", "website": "https://www.chikamori.com/ortho/", "addr:full": "高知県高知市北本町１ー２ー６", "addr:country": "JP", "addr:province": "高知県", "addr:city": "高知市", "addr:neighbourhood": "北本町一丁目", "addr:block_number": "2", "addr:housenumber": "6", "beds": "100", "source": "厚生労働省 医療情報ネットのオープンデータ (2026-06-01)", "_id": "3911393100670", "_座標の出典": "原データ"}}, {"type": "Feature", "geometry": {"type": "Point", "coordinates": [133.550465, 33.581749]}, "properties": {"amenity": "hospital", "healthcare": "hospital", "name": "きんろう病院", "official_name": "きんろう病院", "short_name": "きんろう病院", "name:ja-Hira": "きんろうびょういん", "name:en": "Kinrou Hospital", "opening_hours": "Mo,Tu,We,Th,Fr 08:30-17:00; Sa 08:30-12:30; PH off; Dec 30-Jan 03 off", "healthcare:speciality": "internal;pulmonology;geriatrics;physiatry", "website": "http://www.kinrou-cl.jp", "addr:full": "高知県高知市薊野北町３丁目２番２８号", "addr:country": "JP", "addr:province": "高知県", "addr:city": "高知市", "addr:neighbourhood": "薊野北町三丁目", "addr:block_number": "2", "addr:housenumber": "28", "beds": "101", "source": "厚生労働省 医療情報ネットのオープンデータ (2026-06-01)", "_id": "3911393100700", "_座標の出典": "原データ"}}, {"type": "Feature", "geometry": {"type": "Point", "coordinates": [133.552801, 33.510702]}, "properties": {"amenity": "hospital", "healthcare": "hospital", "name": "海辺の杜ホスピタル", "official_name": "海辺の杜ホスピタル", "short_name": "海辺の杜ホスピタル", "name:ja-Hira": "うみべのもりほすぴたる", "opening_hours": "Mo,Tu,We,Th,Fr 09:00-12:15,13:15-16:45; Sa 09:00-12:00; PH off; Dec 30-Jan 03 off", "healthcare:speciality": "psychiatry", "website": "https://www.umibeno-mori.jp", "addr:full": "高知県高知市長浜２５１番地", "addr:country": "JP", "addr:province": "高知県", "addr:city": "高知市", "addr:neighbourhood": "長浜", "beds": "359", "source": "厚生労働省 医療情報ネットのオープンデータ (2026-06-01)", "_id": "3911395100140", "_座標の出典": "原データ"}}, {"type": "Feature", "geometry": {"type": "Point", "coordinates": [133.511562, 33.551144]}, "properties": {"amenity": "hospital", "healthcare": "hospital", "name": "高知鏡川病院", "official_name": "高知鏡川病院", "short_name": "高知鏡川病院", "name:ja-Hira": "こうちかがみがわびょういん", "name:ja-Latn": "Kochi Kagamigawa Byoin", "opening_hours": "Mo,Tu,We,Th,Fr 09:00-12:30,13:30-17:00; PH off; Dec 29-Jan 03 off", "healthcare:speciality": "internal;psychiatry", "website": "http://www.kagamigawa-hp.com", "addr:full": "高知県高知市城山町２７０番地", "addr:country": "JP", "addr:province": "高知県", "addr:city": "高知市", "addr:neighbourhood": "城山町", "beds": "271", "source": "厚生労働省 医療情報ネットのオープンデータ (2026-06-01)", "_id": "3911395100270", "_座標の出典": "原データ"}}, {"type": "Feature", "geometry": {"type": "Point", "coordinates": [133.530172, 33.566697]}, "properties": {"amenity": "hospital", "healthcare": "hospital", "name": "愛幸病院", "official_name": "愛幸病院", "short_name": "愛幸病院", "name:ja-Hira": "あいこうびょういん", "name:en": "Aiko Hospital", "opening_hours": "Mo,Tu,We,Th,Fr 09:00-12:00,13:30-17:00; Sa 09:00-12:00; PH off; Dec 29-Jan 03,Apr 29,May 03-May 06,Jul 20,Aug 11,Sep 21-Sep 23,Oct 12,Nov 03,Nov 23 off", "healthcare:speciality": "internal;psychiatry", "website": "https://shoshikai-aiko.or.jp", "addr:full": "高知県高知市入明町１４番２号", "addr:country": "JP", "addr:province": "高知県", "addr:city": "高知市", "addr:neighbourhood": "入明町", "addr:block_number": "14", "addr:housenumber": "2", "beds": "226", "source": "厚生労働省 医療情報ネットのオープンデータ (2026-06-01)", "_id": "3911395100300", "_座標の出典": "原データ"}}, {"type": "Feature", "geometry": {"type": "Point", "coordinates": [133.547946, 33.57003]}, "properties": {"amenity": "hospital", "healthcare": "hospital", "name": "土佐病院", "official_name": "土佐病院", "short_name": "土佐病院", "name:ja-Hira": "とさびょういん", "name:en": "Tosa Hospital", "opening_hours": "Mo,Tu,We,Th,Fr 09:00-12:00,13:30-17:00; Sa 09:00-12:00; Sa[1,3,5] off; PH off; Dec 29-Jan 03,Dec 24 off", "healthcare:speciality": "psychiatry", "website": "http://www.tosa-hp.com/", "addr:full": "高知県高知市新本町２－１０－２４", "addr:country": "JP", "addr:province": "高知県", "addr:city": "高知市", "addr:neighbourhood": "新本町二丁目", "addr:block_number": "10", "addr:housenumber": "24", "beds": "174", "source": "厚生労働省 医療情報ネットのオープンデータ (2026-06-01)", "_id": "3911395100560", "_座標の出典": "原データ"}}, {"type": "Feature", "geometry": {"type": "Point", "coordinates": [133.474648, 33.555577]}, "properties": {"amenity": "hospital", "healthcare": "hospital", "name": "仁泉会朝倉病院", "official_name": "特定医療法人仁泉会朝倉病院", "short_name": "朝倉病院", "name:en": "Asakura Hospital", "opening_hours": "Mo,Tu,We,Th,Fr 09:00-17:00; Sa 09:00-12:30; PH off; Dec 30-Jan 03 off", "healthcare:speciality": "internal;cardiology;gastroenterology;neurology;psychiatry;physiatry;radiology", "website": "http://asakura-hospital.jp", "addr:full": "高知県高知市朝倉丙１６５３－１２", "addr:country": "JP", "addr:province": "高知県", "addr:city": "高知市", "addr:neighbourhood": "朝倉丙", "beds": "108", "source": "厚生労働省 医療情報ネットのオープンデータ (2026-06-01)", "_id": "3911395100850", "_座標の出典": "原データ"}}, {"type": "Feature", "geometry": {"type": "Point", "coordinates": [133.53767, 33.565589]}, "properties": {"amenity": "hospital", "healthcare": "hospital", "name": "新松田会愛宕病院", "official_name": "新松田会愛宕病院", "short_name": "愛宕病院", "name:ja-Hira": "しんまつだかいあたごびょういん", "name:en": "ATAGO HOSPITAL", "opening_hours": "Mo,Tu,We,Th,Fr 09:00-12:00,13:30-17:00; Sa 09:00-12:00; PH off; Dec 31-Jan 03 off", "healthcare:speciality": "internal;pulmonology;cardiology;gastroenterology;oncology;surgery;neurosurgery;orthopaedics;gynaecology;ophthalmology;otolaryngology;dermatology;urology;psychiatry;rheumatology;physiatry;radiology;emergency;anaesthetics", "emergency": "yes", "website": "http://www.atago-hp.or.jp", "addr:full": "高知県高知市愛宕町１ー１ー１３", "addr:country": "JP", "addr:province": "高知県", "addr:city": "高知市", "addr:neighbourhood": "愛宕町一丁目", "addr:block_number": "1", "addr:housenumber": "13", "beds": "418", "source": "厚生労働省 医療情報ネットのオープンデータ (2026-06-01)", "_id": "3911395100980", "_座標の出典": "原データ"}}, {"type": "Feature", "geometry": {"type": "Point", "coordinates": [133.518927, 33.556327]}, "properties": {"amenity": "hospital", "healthcare": "hospital", "name": "高知整形・脳外科病院", "official_name": "高知整形・脳外科病院", "short_name": "高知整形・脳外科病院", "name:ja-Hira": "こうちせいけいのうげかびょういん", "name:en": "Kochi Orthoedic Neuro Surgery Hospital", "opening_hours": "Mo,Tu,We,Th,Fr 09:00-12:00,14:00-17:00; Sa 09:00-12:00; PH off; Dec 31-Jan 03 off", "healthcare:speciality": "neurosurgery;orthopaedics;physiatry;anaesthetics", "website": "http://kochiseikei-nogeka.com", "addr:full": "高知県高知市上町４丁目ー７ー２０", "addr:country": "JP", "addr:province": "高知県", "addr:city": "高知市", "addr:neighbourhood": "上町四丁目", "addr:block_number": "7", "addr:housenumber": "20", "beds": "102", "source": "厚生労働省 医療情報ネットのオープンデータ (2026-06-01)", "_id": "3911395101020", "_座標の出典": "原データ"}}, {"type": "Feature", "geometry": {"type": "Point", "coordinates": [133.532029, 33.565595]}, "properties": {"amenity": "hospital", "healthcare": "hospital", "name": "岡村病院", "official_name": "岡村病院", "short_name": "岡村病院", "name:ja-Hira": "おかむらびょういん", "name:ja-Latn": "Okamura Byoin", "opening_hours": "Mo,Tu,We,Th,Fr 09:00-12:00,13:30-17:00; Sa 09:00-12:00; PH off; Dec 30-Jan 03 off", "healthcare:speciality": "internal;cardiology;gastroenterology;surgery;cardiothoracic_surgery;vascular_surgery;proctology;orthopaedics;plastic_surgery;physiatry;radiology;anaesthetics", "website": "http://www.okamura-hp.or.jp/", "addr:full": "高知県高知市入明町１－５", "addr:country": "JP", "addr:province": "高知県", "addr:city": "高知市", "addr:neighbourhood": "入明町", "addr:block_number": "1", "addr:housenumber": "5", "beds": "138", "source": "厚生労働省 医療情報ネットのオープンデータ (2026-06-01)", "_id": "3911395101280", "_座標の出典": "原データ"}}, {"type": "Feature", "geometry": {"type": "Point", "coordinates": [133.517117, 33.555867]}, "properties": {"amenity": "hospital", "healthcare": "hospital", "name": "川村病院", "official_name": "川村病院", "short_name": "川村病院", "name:ja-Hira": "かわむらびょういん", "name:en": "kawamura Hospital", "opening_hours": "Mo,Tu,We,Th,Fr 08:45-12:35,14:00-17:30; Sa 08:45-12:45; PH off; Jan 01-Jan 03 off", "healthcare:speciality": "internal;endocrinology;cardiology;gastroenterology;surgery;psychiatry;physiatry", "website": "https://www.kawamura-hosp.or.jp", "addr:full": "高知県高知市上町５丁目６－２０", "addr:country": "JP", "addr:province": "高知県", "addr:city": "高知市", "addr:neighbourhood": "上町五丁目", "addr:block_number": "6", "addr:housenumber": "20", "beds": "77", "source": "厚生労働省 医療情報ネットのオープンデータ (2026-06-01)", "_id": "3911395101310", "_座標の出典": "原データ"}}, {"type": "Feature", "geometry": {"type": "Point", "coordinates": [133.535336, 33.56647]}, "properties": {"amenity": "hospital", "healthcare": "hospital", "name": "木村病院", "official_name": "木村病院", "short_name": "木村病院", "name:ja-Hira": "きむらびょういん", "name:ja-Latn": "Kimura Byoin", "opening_hours": "Mo,Tu,We,Th,Fr 09:00-12:30,13:30-17:30; Sa 09:00-12:30; PH off; Dec 31-Jan 03 off", "healthcare:speciality": "internal;pulmonology;cardiology;gastroenterology;orthopaedics;urology;physiatry", "website": "http://www.kimuraho.jp/", "addr:full": "高知県高知市寿町８－８", "addr:country": "JP", "addr:province": "高知県", "addr:city": "高知市", "addr:neighbourhood": "寿町", "addr:block_number": "8", "addr:housenumber": "8", "beds": "30", "source": "厚生労働省 医療情報ネットのオープンデータ (2026-06-01)", "_id": "3911395101440", "_座標の出典": "原データ"}}, {"type": "Feature", "geometry": {"type": "Point", "coordinates": [133.526006, 33.558364]}, "properties": {"amenity": "hospital", "healthcare": "hospital", "name": "国吉病院", "official_name": "国吉病院", "short_name": "国吉病院", "name:ja-Hira": "くによしびょういん", "name:ja-Latn": "Kuniyoshi Byoin", "opening_hours": "Mo,Tu,We,Th,Fr 09:00-12:00,14:00-17:00; Sa 09:00-12:00; PH off; Dec 30-Jan 03 off", "healthcare:speciality": "internal;pulmonology;cardiology;gastroenterology;neurology;anaesthetics;palliative;surgery;neurosurgery;cardiothoracic_surgery;abdominal_surgery;orthopaedics;ophthalmology;urology;psychiatry;rheumatology;physiatry;radiology", "website": "http://www.kuniyoshi-hp.or.jp/", "addr:full": "高知県高知市上町１丁目３ー４", "addr:country": "JP", "addr:province": "高知県", "addr:city": "高知市", "addr:neighbourhood": "上町一丁目", "addr:block_number": "3", "addr:housenumber": "4", "beds": "106", "source": "厚生労働省 医療情報ネットのオープンデータ (2026-06-01)", "_id": "3911395101570", "_座標の出典": "原データ"}}, {"type": "Feature", "geometry": {"type": "Point", "coordinates": [133.536736, 33.557252]}, "properties": {"amenity": "hospital", "healthcare": "hospital", "name": "共生会下司病院", "official_name": "医療法人共生会下司病院", "short_name": "下司病院", "name:en": "Geshi Hospital", "opening_hours": "Mo,Tu,We,Th,Fr 08:45-12:30,13:30-17:00; Sa 08:45-12:30; PH off; Dec 31-Jan 03 off", "healthcare:speciality": "internal;gastroenterology;psychiatry;rheumatology;physiatry;radiology", "website": "http://www.kochi-al.org/url/geshi-top.html", "addr:full": "高知県高知市本町３丁目５番１３号", "addr:country": "JP", "addr:province": "高知県", "addr:city": "高知市", "addr:neighbourhood": "本町三丁目", "addr:block_number": "5", "addr:housenumber": "13", "beds": "50", "source": "厚生労働省 医療情報ネットのオープンデータ (2026-06-01)", "_id": "3911395101600", "_座標の出典": "原データ"}}, {"type": "Feature", "geometry": {"type": "Point", "coordinates": [133.544708, 33.564311]}, "properties": {"amenity": "hospital", "healthcare": "hospital", "name": "高知病院", "official_name": "高知病院", "short_name": "高知病院", "name:ja-Hira": "こうちびょういん", "name:en": "kouchi Hospital", "opening_hours": "Mo,Tu,We,Th,Fr 09:00-12:00,13:30-17:00; Sa 09:00-12:30; PH off; Dec 31-Jan 03 off", "healthcare:speciality": "internal;pulmonology;cardiology;gastroenterology;anaesthetics;orthopaedics;physiatry;radiology", "website": "https://kochi-hp.nonami-kai.com/", "addr:full": "高知県高知市相生町１‐３５", "addr:country": "JP", "addr:province": "高知県", "addr:city": "高知市", "addr:neighbourhood": "相生町", "addr:block_number": "1", "addr:housenumber": "35", "beds": "124", "source": "厚生労働省 医療情報ネットのオープンデータ (2026-06-01)", "_id": "3911395101730", "_座標の出典": "原データ"}}, {"type": "Feature", "geometry": {"type": "Point", "coordinates": [133.558362, 33.564765]}, "properties": {"amenity": "hospital", "healthcare": "hospital", "name": "杏林会高知ハーモニーホスピタル", "official_name": "医療法人杏林会高知ハーモニーホスピタル", "short_name": "高知ハーモニーホスピタル", "name:en": "KochiHarmonyHospital", "opening_hours": "Mo,Tu,We,Th,Fr 09:00-12:00,14:00-17:00; Sa 09:00-12:00; PH off; Dec 30-Jan 03 off", "healthcare:speciality": "internal;endocrinology;pulmonology;gastroenterology;child_psychiatry;psychiatry;geriatrics", "website": "http://www.kochi-harmony.or.jp/", "addr:full": "高知県高知市南金田５番１８号", "addr:country": "JP", "addr:province": "高知県", "addr:city": "高知市", "addr:neighbourhood": "南金田", "addr:block_number": "5", "addr:housenumber": "18", "beds": "133", "source": "厚生労働省 医療情報ネットのオープンデータ (2026-06-01)", "_id": "3911395101860", "_座標の出典": "原データ"}}, {"type": "Feature", "geometry": {"type": "Point", "coordinates": [133.572111, 33.558368]}, "properties": {"amenity": "hospital", "healthcare": "hospital", "name": "高知厚生病院", "official_name": "高知厚生病院", "short_name": "高知厚生病院", "name:ja-Hira": "こうちこうせいびょういん", "name:en": "Kochikosei Hospital", "opening_hours": "Mo,Tu,We,Th,Fr 08:30-12:30,13:30-17:30; Sa 08:30-12:30; PH off; Dec 31-Jan 03 off", "healthcare:speciality": "internal;endocrinology;pulmonology;cardiology;gastroenterology;abdominal_surgery;orthopaedics;physiatry", "website": "http://www.kochi-koseihp.jp", "addr:full": "高知県高知市葛島１ー９ー５０", "addr:country": "JP", "addr:province": "高知県", "addr:city": "高知市", "addr:neighbourhood": "葛島一丁目", "addr:block_number": "9", "addr:housenumber": "50", "beds": "42", "source": "厚生労働省 医療情報ネットのオープンデータ (2026-06-01)", "_id": "3911395102160", "_座標の出典": "原データ"}}, {"type": "Feature", "geometry": {"type": "Point", "coordinates": [133.544312, 33.577943]}, "properties": {"amenity": "hospital", "healthcare": "hospital", "name": "高知赤十字病院", "official_name": "高知赤十字病院", "short_name": "高知赤十字病院", "name:ja-Hira": "こうちせきじゅうじびょういん", "name:en": "Japanese Red Cross Kochi Hospital", "opening_hours": "Mo,Tu,We,Th,Fr 08:45-17:05; PH off; Dec 29-Jan 03,May 01 off", "healthcare:speciality": "internal;neurology;pulmonology;cardiology;gastroenterology;surgery;neurosurgery;orthopaedics;paediatrics;gynaecology;ophthalmology;otolaryngology;dermatology;urology;psychiatry;rheumatology;physiatry;radiology;pathology;anaesthetics", "website": "http://www.kochi-med.jrc.or.jp", "addr:full": "高知県高知市秦南町１丁目４番６３ー１１号", "addr:country": "JP", "addr:province": "高知県", "addr:city": "高知市", "addr:neighbourhood": "秦南町一丁目", "addr:block_number": "4", "addr:housenumber": "63-11", "beds": "402", "source": "厚生労働省 医療情報ネットのオープンデータ (2026-06-01)", "_id": "3911395102320", "_座標の出典": "原データ"}}, {"type": "Feature", "geometry": {"type": "Point", "coordinates": [133.484345, 33.542715]}, "properties": {"amenity": "hospital", "healthcare": "hospital", "name": "国立病院機構高知病院", "official_name": "独立行政法人国立病院機構高知病院", "short_name": "国立病院機構高知病院", "name:en": "Kochi National Hospital Kochi Byoin", "opening_hours": "Mo,Tu,We,Th,Fr 09:00-17:15; PH off; Dec 29-Jan 03 off", "healthcare:speciality": "general", "website": "https://kochi.hosp.go.jp/", "addr:full": "高知県高知市朝倉西町１丁目２番２５号", "addr:country": "JP", "addr:province": "高知県", "addr:city": "高知市", "addr:neighbourhood": "朝倉西町一丁目", "addr:block_number": "2", "addr:housenumber": "25", "beds": "424", "source": "厚生労働省 医療情報ネットのオープンデータ (2026-06-01)", "_id": "3911395102610", "_座標の出典": "原データ"}}, {"type": "Feature", "geometry": {"type": "Point", "coordinates": [133.535258, 33.560238]}, "properties": {"amenity": "hospital", "healthcare": "hospital", "name": "島本病院", "official_name": "島本病院", "short_name": "島本病院", "name:ja-Hira": "しまもとびょういん", "name:en": "Shimamoto Hospital", "opening_hours": "Mo,Tu,We,Th,Fr 09:00-12:30,13:30-17:00; Sa 09:00-12:30; PH off; Dec 31-Jan 03 off", "healthcare:speciality": "internal;cardiology;gastroenterology;neurology;geriatrics;neurosurgery;physiatry;radiology", "website": "http://www.shimamotohp.or.jp/index.html", "addr:full": "高知県高知市帯屋町２丁目６番３号", "addr:country": "JP", "addr:province": "高知県", "addr:city": "高知市", "addr:neighbourhood": "帯屋町二丁目", "addr:block_number": "6", "addr:housenumber": "3", "beds": "120", "source": "厚生労働省 医療情報ネットのオープンデータ (2026-06-01)", "_id": "3911395102870", "_座標の出典": "原データ"}}, {"type": "Feature", "geometry": {"type": "Point", "coordinates": [133.547963, 33.558244]}, "properties": {"amenity": "hospital", "healthcare": "hospital", "name": "だいいちリハビリテーション病院", "official_name": "だいいちリハビリテーション病院", "short_name": "だいいちリハビリテーション病院", "name:ja-Hira": "だいいちりはびりてーしょんびょういん", "name:en": "DaiichiRehabilitation Hospital", "opening_hours": "Mo,Tu,We,Th,Fr 09:00-13:00,14:00-18:00; Sa 09:00-13:00; PH off; Dec 31-Jan 03,May 03-May 05 off", "healthcare:speciality": "internal;pulmonology;cardiology;gastroenterology;surgery;orthopaedics;dermatology;psychiatry;rheumatology;physiatry;radiology;anaesthetics", "website": "http://www.daiichi-hp.jp", "addr:full": "高知県高知市九反田２番１４号", "addr:country": "JP", "addr:province": "高知県", "addr:city": "高知市", "addr:neighbourhood": "九反田", "addr:block_number": "2", "addr:housenumber": "14", "beds": "180", "source": "厚生労働省 医療情報ネットのオープンデータ (2026-06-01)", "_id": "3911395102900", "_座標の出典": "原データ"}}, {"type": "Feature", "geometry": {"type": "Point", "coordinates": [133.551836, 33.559199]}, "properties": {"amenity": "hospital", "healthcare": "hospital", "name": "高知記念病院", "official_name": "高知記念病院", "short_name": "高知記念病院", "name:ja-Hira": "こうちきねんびょういん", "name:en": "Kochi Memorial Hospital", "opening_hours": "Mo,Tu,We,Th,Fr 08:30-12:00,13:30-17:00; Sa 08:30-12:00; PH off; Dec 30-Jan 03 off", "healthcare:speciality": "internal;haematology;endocrinology;neurology;pulmonology;cardiology;gastroenterology;dialysis;surgery;abdominal_surgery;proctology;orthopaedics;dermatology;rheumatology;physiatry", "website": "https://kochi-kinen.jp/", "addr:full": "高知県高知市城見町４－１３", "addr:country": "JP", "addr:province": "高知県", "addr:city": "高知市", "addr:neighbourhood": "城見町", "addr:block_number": "4", "addr:housenumber": "13", "beds": "199", "source": "厚生労働省 医療情報ネットのオープンデータ (2026-06-01)", "_id": "3911395103170", "_座標の出典": "原データ"}}, {"type": "Feature", "geometry": {"type": "Point", "coordinates": [133.544582, 33.554403]}, "properties": {"amenity": "hospital", "healthcare": "hospital", "name": "潮江高橋病院", "official_name": "潮江高橋病院", "short_name": "潮江高橋病院", "name:ja-Hira": "うしおえたかはしびょういん", "name:en": "UshioeTakahashi Hospital", "opening_hours": "Mo,Tu,Th,Fr 09:00-12:30,13:30-17:30; We,Sa 09:00-12:30; PH off; Dec 30-Jan 03 off", "healthcare:speciality": "internal;pulmonology;cardiology;gastroenterology;surgery;ophthalmology;physiatry;radiology", "website": "https://www.takashiokai.jp", "addr:full": "高知県高知市土居町９－１８", "addr:country": "JP", "addr:province": "高知県", "addr:city": "高知市", "addr:neighbourhood": "土居町", "addr:block_number": "9", "addr:housenumber": "18", "beds": "80", "source": "厚生労働省 医療情報ネットのオープンデータ (2026-06-01)", "_id": "3911395103200", "_座標の出典": "原データ"}}, {"type": "Feature", "geometry": {"type": "Point", "coordinates": [133.572582, 33.514116]}, "properties": {"amenity": "hospital", "healthcare": "hospital", "name": "海里マリン病院", "official_name": "海里マリン病院", "short_name": "マリン病院", "name:ja-Hira": "みさとまりんびょういん", "name:en": "Marine Hospital", "opening_hours": "Mo,Tu,We,Th,Fr 09:00-13:00,14:00-18:00; Sa 09:00-13:00; PH off; Dec 31-Jan 03 off", "healthcare:speciality": "internal;cardiology;gastroenterology;surgery;orthopaedics;ophthalmology;dermatology;psychiatry;rheumatology;physiatry;radiology;anaesthetics", "website": "https://www.marine-hosp.jp/", "addr:full": "高知県高知市仁井田１６１７ー５", "addr:country": "JP", "addr:province": "高知県", "addr:city": "高知市", "addr:neighbourhood": "仁井田", "beds": "76", "source": "厚生労働省 医療情報ネットのオープンデータ (2026-06-01)", "_id": "3911395103330", "_座標の出典": "原データ"}}, {"type": "Feature", "geometry": {"type": "Point", "coordinates": [133.542183, 33.564354]}, "properties": {"amenity": "hospital", "healthcare": "hospital", "name": "近森病院", "official_name": "近森病院", "short_name": "近森病院", "name:ja-Hira": "ちかもりびょういん", "name:en": "Chikamori Hospital", "opening_hours": "Mo,Tu,We,Th,Fr 09:00-12:00,13:30-17:00; PH off; Dec 31-Jan 03 off", "healthcare:speciality": "internal;neurology;pulmonology;cardiology;gastroenterology;nephrology;surgery;neurosurgery;orthopaedics;paediatric_surgery;dermatology;urology;psychiatry;dentistry;rheumatology;physiatry;radiology;pathology;emergency;anaesthetics", "emergency": "yes", "website": "http://www.chikamori.com", "addr:full": "高知県高知市大川筋一丁目１番１６号", "addr:country": "JP", "addr:province": "高知県", "addr:city": "高知市", "addr:neighbourhood": "大川筋一丁目", "addr:block_number": "1", "addr:housenumber": "16", "beds": "489", "source": "厚生労働省 医療情報ネットのオープンデータ (2026-06-01)", "_id": "3911395103460", "_座標の出典": "原データ"}}, {"type": "Feature", "geometry": {"type": "Point", "coordinates": [133.561253, 33.557047]}, "properties": {"amenity": "hospital", "healthcare": "hospital", "name": "土佐田村病院", "official_name": "土佐田村病院", "short_name": "土佐田村病院", "name:ja-Hira": "とさたむらびょういん", "name:ja-Latn": "Tosatamura Byoin", "opening_hours": "Mo,Tu,We,Th,Fr 09:00-12:00,14:00-17:30; Sa 09:00-13:00; PH off; Dec 31-Jan 03 off", "healthcare:speciality": "internal;pulmonology;cardiology;gastroenterology;physiatry;radiology", "website": "https://tosatamura.jp", "addr:full": "高知県高知市稲荷町１１－２０", "addr:country": "JP", "addr:province": "高知県", "addr:city": "高知市", "addr:neighbourhood": "稲荷町", "addr:block_number": "11", "addr:housenumber": "20", "beds": "44", "source": "厚生労働省 医療情報ネットのオープンデータ (2026-06-01)", "_id": "3911395103590", "_座標の出典": "原データ"}}, {"type": "Feature", "geometry": {"type": "Point", "coordinates": [133.556185, 33.558891]}, "properties": {"amenity": "hospital", "healthcare": "hospital", "name": "図南病院", "official_name": "図南病院", "short_name": "図南病院", "name:ja-Hira": "となんびょういん", "name:en": "Tonan Hospital", "opening_hours": "Mo 08:30-17:00; Tu,We,Th,Fr 08:30-12:00,13:30-17:00; Sa 08:30-12:00; PH off; Dec 30-Jan 03 off || off \"GWは休診\"", "healthcare:speciality": "internal;neurology;pulmonology;cardiology;gastroenterology;hepatology;palliative;surgery;abdominal_surgery;proctology;orthopaedics;plastic_surgery;physiatry;radiology;anaesthetics", "website": "http://www.hisakai.or.jp/tonan/", "addr:full": "高知県高知市知寄町１丁目５－１５", "addr:country": "JP", "addr:province": "高知県", "addr:city": "高知市", "addr:neighbourhood": "知寄町一丁目", "addr:block_number": "5", "addr:housenumber": "15", "beds": "119", "source": "厚生労働省 医療情報ネットのオープンデータ (2026-06-01)", "_id": "3911395103750", "_座標の出典": "原データ"}}, {"type": "Feature", "geometry": {"type": "Point", "coordinates": [133.544841, 33.501044]}, "properties": {"amenity": "hospital", "healthcare": "hospital", "name": "長浜病院", "official_name": "長浜病院", "short_name": "長浜病院", "name:ja-Hira": "ながはまびょういん", "name:en": "Nagahama Hospital", "opening_hours": "Mo,Tu,We,Th,Fr 08:30-12:30,14:00-18:00; Sa 08:30-12:30,14:00-17:00; PH off; Dec 30-Jan 03 off", "healthcare:speciality": "internal;pulmonology;otolaryngology;cardiology;gastroenterology;surgery;cardiothoracic_surgery;proctology;orthopaedics;plastic_surgery", "website": "http://www.nagahama-hp.or.jp", "addr:full": "高知県高知市長浜８０１", "addr:country": "JP", "addr:province": "高知県", "addr:city": "高知市", "addr:neighbourhood": "長浜", "beds": "50", "source": "厚生労働省 医療情報ネットのオープンデータ (2026-06-01)", "_id": "3911395103910", "_座標の出典": "原データ"}}, {"type": "Feature", "geometry": {"type": "Point", "coordinates": [133.547857, 33.560552]}, "properties": {"amenity": "hospital", "healthcare": "hospital", "name": "久病院", "official_name": "医療法人久会　久病院", "short_name": "久病院", "name:en": "hisa hospital", "opening_hours": "Mo,Tu,We,Th,Fr 09:00-12:30,14:00-17:00; Sa 09:00-12:30; PH off; Dec 30-Jan 03 off", "healthcare:speciality": "internal;endocrinology;pulmonology;gastroenterology;physiatry", "website": "http://www.hisakai.or.jp/hisa/index.htm", "addr:full": "高知県高知市桜井町１－２－３５", "addr:country": "JP", "addr:province": "高知県", "addr:city": "高知市", "addr:neighbourhood": "桜井町一丁目", "addr:block_number": "2", "addr:housenumber": "35", "beds": "84", "source": "厚生労働省 医療情報ネットのオープンデータ (2026-06-01)", "_id": "3911395104500", "_座標の出典": "原データ"}}, {"type": "Feature", "geometry": {"type": "Point", "coordinates": [133.530171, 33.557254]}, "properties": {"amenity": "hospital", "healthcare": "hospital", "name": "平田病院", "official_name": "平田病院", "short_name": "平田病院", "name:ja-Hira": "ひらたびょういん", "name:en": "Hirata Hospital", "opening_hours": "Mo,Tu,We,Th,Fr 09:00-17:30; Sa 09:00-12:30; PH off; Dec 30-Jan 03 off", "healthcare:speciality": "internal;pulmonology;orthopaedics;allergology;rheumatology;physiatry", "website": "http://www.hirata-hp.com/", "addr:full": "高知県高知市本町５丁目４番２３号", "addr:country": "JP", "addr:province": "高知県", "addr:city": "高知市", "addr:neighbourhood": "本町五丁目", "addr:block_number": "4", "addr:housenumber": "23", "beds": "24", "source": "厚生労働省 医療情報ネットのオープンデータ (2026-06-01)", "_id": "3911395104630", "_座標の出典": "原データ"}}, {"type": "Feature", "geometry": {"type": "Point", "coordinates": [133.525451, 33.55781]}, "properties": {"amenity": "hospital", "healthcare": "hospital", "name": "藤戸病院", "official_name": "藤戸病院", "short_name": "藤戸病院", "name:ja-Hira": "ふじとびょういん", "name:ja-Latn": "Fujito Byouin", "opening_hours": "Mo,Tu,We,Th,Fr,Sa 09:00-13:00,14:00-17:00; PH off; Dec 30-Jan 03 off", "healthcare:speciality": "psychiatry", "website": "https://okura-kai.com", "addr:full": "高知県高知市上町１丁目４－２４", "addr:country": "JP", "addr:province": "高知県", "addr:city": "高知市", "addr:neighbourhood": "上町一丁目", "addr:block_number": "4", "addr:housenumber": "24", "beds": "80", "source": "厚生労働省 医療情報ネットのオープンデータ (2026-06-01)", "_id": "3911395104890", "_座標の出典": "原データ"}}, {"type": "Feature", "geometry": {"type": "Point", "coordinates": [133.522671, 33.559748]}, "properties": {"amenity": "hospital", "healthcare": "hospital", "name": "細木病院", "official_name": "細木病院", "short_name": "細木病院", "name:ja-Hira": "ほそぎびょういん", "name:en": "HOSOGI HOSPITAL", "opening_hours": "Mo,Tu,We 09:00-12:30,13:30-17:30; Th,Fr 09:00-17:30; Sa 09:00-12:30,13:00-15:00; PH off; Dec 31-Jan 03 off", "healthcare:speciality": "internal;pulmonology;cardiology;gastroenterology;nephrology;surgery;neurosurgery;orthopaedics;paediatrics;otolaryngology;dermatology;urology;psychiatry;dentistry;rheumatology;physiatry;radiology;anaesthetics", "website": "http://hosogi-hospital.jp/index.htm", "addr:full": "高知県高知市大膳町３７", "addr:country": "JP", "addr:province": "高知県", "addr:city": "高知市", "addr:neighbourhood": "大膳町", "beds": "428", "source": "厚生労働省 医療情報ネットのオープンデータ (2026-06-01)", "_id": "3911395104920", "_座標の出典": "原データ"}}, {"type": "Feature", "geometry": {"type": "Point", "coordinates": [133.526029, 33.557093]}, "properties": {"amenity": "hospital", "healthcare": "hospital", "name": "上町病院", "official_name": "上町病院", "short_name": "上町病院", "name:ja-Hira": "かみまちびょういん", "name:en": "Kamimachi Hospital", "opening_hours": "Mo,Tu,We,Th,Fr 09:00-12:00,13:00-17:00; Sa 09:00-12:00; PH off; Dec 31-Jan 03 off", "healthcare:speciality": "internal;endocrinology;surgery;orthopaedics;plastic_surgery;dermatology;physiatry;radiology;anaesthetics", "website": "http://www.kamimachi-hp.or.jp/", "addr:full": "高知県高知市上町１－７－３４", "addr:country": "JP", "addr:province": "高知県", "addr:city": "高知市", "addr:neighbourhood": "上町一丁目", "addr:block_number": "7", "addr:housenumber": "34", "beds": "92", "source": "厚生労働省 医療情報ネットのオープンデータ (2026-06-01)", "_id": "3911395105060", "_座標の出典": "原データ"}}, {"type": "Feature", "geometry": {"type": "Point", "coordinates": [133.535022, 33.557215]}, "properties": {"amenity": "hospital", "healthcare": "hospital", "name": "南病院", "official_name": "南病院", "short_name": "南病院", "name:ja-Hira": "みなみびょういん", "opening_hours": "Mo,Tu,We,Th,Fr 09:00-12:00,13:00-17:00; Sa 09:00-12:00; PH off; Dec 31-Jan 03 off", "healthcare:speciality": "internal;cardiology;gastroenterology;physiatry;radiology", "addr:full": "高知県高知市本町３丁目６－２８", "addr:country": "JP", "addr:province": "高知県", "addr:city": "高知市", "addr:neighbourhood": "本町三丁目", "addr:block_number": "6", "addr:housenumber": "28", "beds": "70", "source": "厚生労働省 医療情報ネットのオープンデータ (2026-06-01)", "_id": "3911395105220", "_座標の出典": "原データ"}}, {"type": "Feature", "geometry": {"type": "Point", "coordinates": [133.507866, 33.5547]}, "properties": {"amenity": "hospital", "healthcare": "hospital", "name": "山村病院", "official_name": "山村病院", "short_name": "山村病院", "name:ja-Hira": "やまむらびょういん", "name:en": "Yamamura Hospital", "opening_hours": "Mo,Tu,We,Th,Fr 09:00-12:30,13:30-18:00; Sa 09:00-12:30; PH off; Dec 31-Jan 03 off", "healthcare:speciality": "internal;pulmonology;cardiology;gastroenterology;orthopaedics;urology;physiatry", "website": "http://yamamurakai.sakura.ne.jp", "addr:full": "高知県高知市下島町１０６番地", "addr:country": "JP", "addr:province": "高知県", "addr:city": "高知市", "addr:neighbourhood": "下島町", "beds": "33", "source": "厚生労働省 医療情報ネットのオープンデータ (2026-06-01)", "_id": "3911395105480", "_座標の出典": "原データ"}}, {"type": "Feature", "geometry": {"type": "Point", "coordinates": [133.597541, 33.567746]}, "properties": {"amenity": "hospital", "healthcare": "hospital", "name": "高知城東病院", "official_name": "高知城東病院", "short_name": "高知城東病院", "name:ja-Hira": "こうちじょうとうびょういん", "name:en": "KOCHI JOTO HOSPITAL", "opening_hours": "Mo,Tu,We,Th,Fr 09:00-12:30,13:30-16:00; PH off; Dec 30-Jan 03 off", "healthcare:speciality": "internal;dermatology;physiatry;radiology", "website": "http://www.kochijoto.or.jp/", "addr:full": "高知県高知市大津乙７１９", "addr:country": "JP", "addr:province": "高知県", "addr:city": "高知市", "addr:neighbourhood": "大津乙", "beds": "60", "source": "厚生労働省 医療情報ネットのオープンデータ (2026-06-01)", "_id": "3911395105640", "_座標の出典": "原データ"}}, {"type": "Feature", "geometry": {"type": "Point", "coordinates": [133.538431, 33.557977]}, "properties": {"amenity": "hospital", "healthcare": "hospital", "name": "竹下会竹下病院", "official_name": "特定医療法人竹下会竹下病院", "short_name": "竹下病院", "name:en": "Takeshita Hospital", "opening_hours": "Mo,Tu,We,Th,Fr 09:00-12:30,13:30-17:20; Sa 09:00-12:05; PH off; Dec 30-Jan 03,Apr 29,May 03-May 05 off || off \"GWは休診\"", "healthcare:speciality": "internal;endocrinology;pulmonology;cardiology;nephrology;geriatrics;surgery;abdominal_surgery;proctology;orthopaedics;gynaecology;dermatology;urology;rheumatology;physiatry", "website": "http://www.takeshita-hp.jp/", "addr:full": "高知県高知市与力町３番８号", "addr:country": "JP", "addr:province": "高知県", "addr:city": "高知市", "addr:neighbourhood": "与力町", "addr:block_number": "3", "addr:housenumber": "8", "beds": "76", "source": "厚生労働省 医療情報ネットのオープンデータ (2026-06-01)", "_id": "3911395105800", "_座標の出典": "原データ"}}, {"type": "Feature", "geometry": {"type": "Point", "coordinates": [133.512905, 33.556979]}, "properties": {"amenity": "hospital", "healthcare": "hospital", "name": "町田病院", "official_name": "町田病院", "short_name": "町田病院", "name:ja-Hira": "まちだびょういん", "name:ja-Latn": "Machida Byoin", "opening_hours": "Mo,Tu,We,Th,Fr 08:45-12:15,13:30-17:00; Sa 08:45-12:15; Sa[2,4,5] off; PH off; Dec 29-Jan 03 off", "healthcare:speciality": "ophthalmology", "website": "http://www.machida-hp.com/", "addr:full": "高知県高知市旭町１－１０４", "addr:country": "JP", "addr:province": "高知県", "addr:city": "高知市", "addr:neighbourhood": "旭町一丁目", "beds": "60", "source": "厚生労働省 医療情報ネットのオープンデータ (2026-06-01)", "_id": "3911395105930", "_座標の出典": "原データ"}}, {"type": "Feature", "geometry": {"type": "Point", "coordinates": [133.501842, 33.54059]}, "properties": {"amenity": "hospital", "healthcare": "hospital", "name": "地域医療機能推進機構高知西病院", "official_name": "独立行政法人地域医療機能推進機構高知西病院", "short_name": "高知西病院", "name:en": "kochi nisi hospital", "opening_hours": "Mo,Tu,We,Th,Fr 09:00-12:00,13:00-17:00; PH off; Dec 29-Jan 03 off", "healthcare:speciality": "internal;surgery;abdominal_surgery;orthopaedics;urology;physiatry;radiology;anaesthetics", "website": "http://kochi.jcho.go.jp/", "addr:full": "高知県高知市神田３１７－１２", "addr:country": "JP", "addr:province": "高知県", "addr:city": "高知市", "addr:neighbourhood": "神田", "beds": "146", "source": "厚生労働省 医療情報ネットのオープンデータ (2026-06-01)", "_id": "3911395106070", "_座標の出典": "原データ"}}, {"type": "Feature", "geometry": {"type": "Point", "coordinates": [133.567771, 33.58333]}, "properties": {"amenity": "hospital", "healthcare": "hospital", "name": "三愛病院", "official_name": "三愛病院", "short_name": "三愛病院", "name:ja-Hira": "さんあいびょういん", "name:en": "san-ai Hospital", "opening_hours": "Mo,We,Th,Fr 09:00-12:30,13:30-18:00; Tu 09:00-12:30,13:30-17:30; Sa 09:00-12:30; PH off; Dec 31-Jan 03 off", "healthcare:speciality": "internal;cardiology;orthopaedics;paediatrics;otolaryngology;dermatology;psychiatry;physiatry;radiology", "website": "http://www.sanai-hospital.jp/top/", "addr:full": "高知県高知市一宮西町１丁目７ー２５", "addr:country": "JP", "addr:province": "高知県", "addr:city": "高知市", "addr:neighbourhood": "一宮西町一丁目", "addr:block_number": "7", "addr:housenumber": "25", "beds": "98", "source": "厚生労働省 医療情報ネットのオープンデータ (2026-06-01)", "_id": "3911395106100", "_座標の出典": "原データ"}}, {"type": "Feature", "geometry": {"type": "Point", "coordinates": [133.563756, 33.579066]}, "properties": {"amenity": "hospital", "healthcare": "hospital", "name": "高知総合リハビリテーション病院", "official_name": "高知総合リハビリテーション病院", "short_name": "高知総合リハビリテーション病院", "name:ja-Hira": "こうちそうごうりはびりてーしょんびょういん", "name:en": "Kouchi-sougou-Rehabilitation-Hospital", "opening_hours": "Mo,Tu,We,Th,Fr 09:00-12:00,13:00-17:00; PH off; Dec 31-Jan 03 off", "healthcare:speciality": "internal;cardiology;gastroenterology;physiatry", "website": "https://www.jojinkai.com/kouchi/", "addr:full": "高知県高知市一宮南町１丁目１０番１５号", "addr:country": "JP", "addr:province": "高知県", "addr:city": "高知市", "addr:neighbourhood": "一宮南町一丁目", "addr:block_number": "10", "addr:housenumber": "15", "beds": "176", "source": "厚生労働省 医療情報ネットのオープンデータ (2026-06-01)", "_id": "3911395106230", "_座標の出典": "原データ"}}, {"type": "Feature", "geometry": {"type": "Point", "coordinates": [133.536934, 33.570777]}, "properties": {"amenity": "hospital", "healthcare": "hospital", "name": "高橋病院", "official_name": "高橋病院", "short_name": "高橋病院", "name:ja-Hira": "たかはしびょういん", "name:en": "Takahashi Hospital", "opening_hours": "Mo,Tu,We,Th,Fr 09:00-12:30,14:00-17:30; Sa 09:00-12:30; PH off; Dec 29-Jan 03 off", "healthcare:speciality": "internal;pulmonology;cardiology;gastroenterology;surgery;orthopaedics;ophthalmology", "addr:full": "高知県高知市愛宕町３丁目９番２０号", "addr:country": "JP", "addr:province": "高知県", "addr:city": "高知市", "addr:neighbourhood": "愛宕町三丁目", "addr:block_number": "9", "addr:housenumber": "20", "beds": "29", "source": "厚生労働省 医療情報ネットのオープンデータ (2026-06-01)", "_id": "3911395106360", "_座標の出典": "原データ"}}, {"type": "Feature", "geometry": {"type": "Point", "coordinates": [133.549185, 33.489501]}, "properties": {"amenity": "hospital", "healthcare": "hospital", "name": "愛宕病院分院", "official_name": "新松田会　愛宕病院分院", "short_name": "愛宕病院分院", "name:en": "AtagoBuninHospital", "opening_hours": "Mo,Tu,We,Th,Fr 09:00-17:00; Sa 09:00-12:30; PH off; Dec 31-Jan 03 off", "healthcare:speciality": "internal;psychiatry;physiatry", "website": "http://atago-ryoyohp.jp/", "addr:full": "高知県高知市長浜", "addr:country": "JP", "addr:province": "高知県", "addr:city": "高知市", "addr:neighbourhood": "長浜", "beds": "180", "source": "厚生労働省 医療情報ネットのオープンデータ (2026-06-01)", "_id": "3911395106490", "_座標の出典": "原データ"}}, {"type": "Feature", "geometry": {"type": "Point", "coordinates": [133.514619, 33.548922]}, "properties": {"amenity": "hospital", "healthcare": "hospital", "name": "岡林病院", "official_name": "岡林病院", "short_name": "岡林病院", "name:ja-Hira": "おかばやしびょういん", "name:en": "Okabayashi Hospital", "opening_hours": "Mo,Tu,We,Th,Fr 09:00-12:00,14:00-17:00; Sa 09:00-12:00; PH off; Dec 30-Jan 03 off", "healthcare:speciality": "internal;haematology;pulmonology;geriatrics;cardiology;gastroenterology;surgery;neurosurgery;cardiothoracic_surgery;orthopaedics;plastic_surgery;ophthalmology;dermatology;urology;allergology;rheumatology;physiatry;radiology", "website": "http://okabayashi.jp", "addr:full": "高知県高知市神田５９８", "addr:country": "JP", "addr:province": "高知県", "addr:city": "高知市", "addr:neighbourhood": "神田", "beds": "91", "source": "厚生労働省 医療情報ネットのオープンデータ (2026-06-01)", "_id": "3911395106650", "_座標の出典": "原データ"}}, {"type": "Feature", "geometry": {"type": "Point", "coordinates": [133.5429, 33.558202]}, "properties": {"amenity": "hospital", "healthcare": "hospital", "name": "下村病院", "official_name": "下村病院", "short_name": "下村病院", "name:ja-Hira": "しもむらびょういん", "name:ja-Latn": "Shimomura Byoin", "opening_hours": "Mo,Tu,Th,Fr 09:00-17:00; We,Sa 09:00-13:00; PH off; Dec 30-Jan 03 off", "healthcare:speciality": "internal;gastroenterology;proctology;urology", "website": "https://shimomura-hospital.com/", "addr:full": "高知県高知市南はりまや町１丁目７－１５", "addr:country": "JP", "addr:province": "高知県", "addr:city": "高知市", "addr:neighbourhood": "南はりまや町一丁目", "addr:block_number": "7", "addr:housenumber": "15", "beds": "41", "source": "厚生労働省 医療情報ネットのオープンデータ (2026-06-01)", "_id": "3911395106810", "_座標の出典": "原データ"}}, {"type": "Feature", "geometry": {"type": "Point", "coordinates": [133.522579, 33.558157]}, "properties": {"amenity": "hospital", "healthcare": "hospital", "name": "田中整形外科病院", "official_name": "田中整形外科病院", "short_name": "田中整形外科病院", "name:ja-Hira": "たなかせいけいげかびょういん", "name:ja-Latn": "Tanakaseikeigekabyouin", "opening_hours": "Mo,Tu,We,Th,Fr 09:00-12:00,14:00-17:00; Sa 09:00-12:00; PH off; Dec 31-Jan 03 off", "healthcare:speciality": "internal;anaesthetics;orthopaedics;rheumatology;physiatry", "website": "https://www.tanakaseikei.jp/", "addr:full": "高知県高知市上町３丁目２番６号", "addr:country": "JP", "addr:province": "高知県", "addr:city": "高知市", "addr:neighbourhood": "上町三丁目", "addr:block_number": "2", "addr:housenumber": "6", "beds": "90", "source": "厚生労働省 医療情報ネットのオープンデータ (2026-06-01)", "_id": "3911395107080", "_座標の出典": "原データ"}}, {"type": "Feature", "geometry": {"type": "Point", "coordinates": [133.547949, 33.519483]}, "properties": {"amenity": "hospital", "healthcare": "hospital", "name": "横浜病院", "official_name": "横浜病院", "short_name": "横浜病院", "name:ja-Hira": "よこはまびょういん", "name:en": "YokohamaHospital", "opening_hours": "Mo,Th,Fr 09:00-12:30,13:30-17:00; Tu,We,Sa 09:00-12:30; PH off; Dec 30-Jan 03 off", "healthcare:speciality": "internal;pulmonology;cardiology;gastroenterology;surgery;orthopaedics;psychiatry;physiatry;radiology", "website": "http://www.kochi-yokohama-hp.jp", "addr:full": "高知県高知市横浜東町１０番１号", "addr:country": "JP", "addr:province": "高知県", "addr:city": "高知市", "addr:neighbourhood": "横浜東町", "beds": "180", "source": "厚生労働省 医療情報ネットのオープンデータ (2026-06-01)", "_id": "3911395107400", "_座標の出典": "原データ"}}, {"type": "Feature", "geometry": {"type": "Point", "coordinates": [133.55739, 33.556572]}, "properties": {"amenity": "hospital", "healthcare": "hospital", "name": "田村内科整形外科病院", "official_name": "田村内科整形外科病院", "short_name": "田村内科整形外科病院", "name:ja-Hira": "たむらないかせいけいげかびょういん", "name:ja-Latn": "Tamura Naika Seikeigeka Byoin", "opening_hours": "Mo,Tu,We,Th,Fr 09:00-12:45,14:00-17:30; Sa 09:00-12:45; PH off; Dec 30-Jan 03 off", "healthcare:speciality": "internal;cardiology;gastroenterology;orthopaedics;rheumatology;physiatry", "addr:full": "高知県高知市二葉町１０ー１０", "addr:country": "JP", "addr:province": "高知県", "addr:city": "高知市", "addr:neighbourhood": "二葉町", "addr:block_number": "10", "addr:housenumber": "10", "beds": "70", "source": "厚生労働省 医療情報ネットのオープンデータ (2026-06-01)", "_id": "3911395107790", "_座標の出典": "原データ"}}, {"type": "Feature", "geometry": {"type": "Point", "coordinates": [133.64266, 33.575034]}, "properties": {"amenity": "hospital", "healthcare": "hospital", "name": "北村病院", "official_name": "北村病院", "short_name": "北村病院", "name:ja-Hira": "きたむらびょういん", "name:en": "Kitamura Hospital", "opening_hours": "Mo,Tu,We,Th,Fr 08:30-12:30,14:00-17:00; Sa 08:30-12:30; PH off; Dec 30-Jan 03 off", "healthcare:speciality": "internal;endocrinology;pulmonology;cardiology;gastroenterology;nephrology;surgery;vascular_surgery;physiatry;radiology", "website": "http://kitamura-hp.jp/", "addr:full": "高知県南国市東崎１３３６番地", "addr:country": "JP", "addr:province": "高知県", "addr:city": "南国市", "addr:neighbourhood": "東崎", "beds": "60", "source": "厚生労働省 医療情報ネットのオープンデータ (2026-06-01)", "_id": "3911395108120", "_座標の出典": "原データ"}}, {"type": "Feature", "geometry": {"type": "Point", "coordinates": [133.617386, 33.599474]}, "properties": {"amenity": "hospital", "healthcare": "hospital", "name": "岡豊病院", "official_name": "岡豊病院", "short_name": "岡豊病院", "name:ja-Hira": "おこうびょういん", "name:ja-Latn": "Okou Byoin", "opening_hours": "Mo,Tu,We,Th,Fr 09:00-12:00; PH off; Dec 30-Jan 03 off", "healthcare:speciality": "internal;psychiatry;geriatrics;physiatry", "website": "http://www.okou-hp.or.jp", "addr:full": "高知県南国市岡豊町小蓮６８９－１", "addr:country": "JP", "addr:province": "高知県", "addr:city": "南国市", "addr:neighbourhood": "岡豊町小蓮", "beds": "235", "source": "厚生労働省 医療情報ネットのオープンデータ (2026-06-01)", "_id": "3911395108410", "_座標の出典": "原データ"}}, {"type": "Feature", "geometry": {"type": "Point", "coordinates": [133.646742, 33.567497]}, "properties": {"amenity": "hospital", "healthcare": "hospital", "name": "つくし会南国病院", "official_name": "医療法人つくし会南国病院", "short_name": "南国病院", "name:en": "Nankoku Hospital", "opening_hours": "Mo,Tu,We,Th,Fr 08:30-12:30,13:30-17:00; Sa 08:30-12:30; PH off; Dec 30-Jan 03 off", "healthcare:speciality": "internal;neurology;gastroenterology;psychiatry;physiatry;radiology", "website": "http://www.nankoku-hp.or.jp", "addr:full": "高知県南国市大そね甲１４７９－３", "addr:country": "JP", "addr:province": "高知県", "addr:city": "南国市", "beds": "162", "source": "厚生労働省 医療情報ネットのオープンデータ (2026-06-01)", "_id": "3911395108620", "_座標の出典": "原データ"}}, {"type": "Feature", "geometry": {"type": "Point", "coordinates": [133.649604, 33.566146]}, "properties": {"amenity": "hospital", "healthcare": "hospital", "name": "藤原病院", "official_name": "藤原病院", "short_name": "藤原病院", "name:ja-Hira": "ふじわらびょういん", "name:en": "FujiwaraHospital", "opening_hours": "Mo 09:00-12:30,13:00-17:00; Tu,We,Th,Fr 09:00-12:00,13:00-17:00; Sa 09:00-12:00; PH off; Dec 29-Jan 03 off", "healthcare:speciality": "internal;cardiology;gastroenterology;surgery;neurosurgery;orthopaedics;physiatry;radiology;anaesthetics", "addr:full": "高知県南国市大そね乙９９５番地", "addr:country": "JP", "addr:province": "高知県", "addr:city": "南国市", "beds": "117", "source": "厚生労働省 医療情報ネットのオープンデータ (2026-06-01)", "_id": "3911395108700", "_座標の出典": "原データ"}}, {"type": "Feature", "geometry": {"type": "Point", "coordinates": [133.614331, 33.594753]}, "properties": {"amenity": "hospital", "healthcare": "hospital", "name": "高知大学医学部附属病院", "official_name": "高知大学医学部附属病院", "short_name": "高知大学医学部附属病院", "name:ja-Hira": "こうちだいがくいがくぶふぞくびょういん", "name:en": "Kochi Medical School Hospital", "opening_hours": "Mo,Tu,We,Th,Fr 09:00-17:00; PH off; Dec 29-Jan 03 off", "healthcare:speciality": "internal;neurology;cardiology;gastroenterology;oncology;palliative;surgery;neurosurgery;otolaryngology;orthopaedics;paediatrics;gynaecology;ophthalmology;dermatology;urology;psychiatry;dentistry;physiatry;radiology;pathology;emergency;anaesthetics", "emergency": "yes", "website": "https://www.kochi-u.ac.jp/kms/hsptl/index.html", "addr:full": "高知県南国市岡豊町小蓮１８５－１", "addr:country": "JP", "addr:province": "高知県", "addr:city": "南国市", "addr:neighbourhood": "岡豊町小蓮", "beds": "613", "source": "厚生労働省 医療情報ネットのオープンデータ (2026-06-01)", "_id": "3911395108830", "_座標の出典": "原データ"}}, {"type": "Feature", "geometry": {"type": "Point", "coordinates": [133.409907, 33.541974]}, "properties": {"amenity": "hospital", "healthcare": "hospital", "name": "石川記念病院", "official_name": "石川記念病院", "short_name": "石川記念病院", "name:ja-Hira": "いしかわきねんびょういん", "name:en": "Ishikawa Memorial Hospital", "opening_hours": "Mo,Tu,We,Th,Fr 09:00-17:00; Sa 09:00-12:15; PH off; Dec 31-Jan 03,May 03-May 06 off || off \"GWは休診\"", "healthcare:speciality": "internal;psychiatry", "website": "https://ishikawahp.com/", "addr:full": "高知県吾川郡いの町波川７７番地", "addr:country": "JP", "addr:province": "高知県", "addr:county": "吾川郡", "addr:city": "いの町", "addr:neighbourhood": "波川", "beds": "104", "source": "厚生労働省 医療情報ネットのオープンデータ (2026-06-01)", "_id": "3911395108960", "_座標の出典": "原データ"}}, {"type": "Feature", "geometry": {"type": "Point", "coordinates": [133.433513, 33.547252]}, "properties": {"amenity": "hospital", "healthcare": "hospital", "name": "いの町立国民健康保険仁淀病院", "official_name": "いの町立国民健康保険仁淀病院", "short_name": "仁淀病院", "name:ja-Hira": "いのちょうりつこくみんけんこうほけんによどびょういん", "name:en": "Niyodo Hospital", "opening_hours": "Mo 08:30-12:30,13:30-17:30; Tu 08:30-12:00,13:30-17:00; We,Fr 08:30-12:00,13:30-17:30; Th 08:30-17:00; PH off; Dec 29-Jan 03 off", "healthcare:speciality": "internal;cardiology;gastroenterology;surgery;abdominal_surgery;proctology;orthopaedics;paediatrics;gynaecology;ophthalmology;otolaryngology;dermatology;urology;radiology", "website": "https://www.town.ino.kochi.jp/niyodo-hospital/index.html", "addr:full": "高知県吾川郡いの町１３６９", "addr:country": "JP", "addr:province": "高知県", "addr:county": "吾川郡", "addr:city": "いの町", "beds": "60", "source": "厚生労働省 医療情報ネットのオープンデータ (2026-06-01)", "_id": "3911395109260", "_座標の出典": "原データ"}}, {"type": "Feature", "geometry": {"type": "Point", "coordinates": [133.495958, 33.499165]}, "properties": {"amenity": "hospital", "healthcare": "hospital", "name": "永井病院", "official_name": "永島会　永井病院", "short_name": "永井病院", "name:en": "Nagai Hospital (Nagai Byoin)", "healthcare:speciality": "internal;infectious_diseases;pulmonology;gastroenterology;surgery;orthopaedics;rheumatology;physiatry", "website": "http://www.nagai-hp.com/", "addr:full": "高知県高知市春野町西分２０２７－３", "addr:country": "JP", "addr:province": "高知県", "addr:city": "高知市", "addr:neighbourhood": "春野町西分", "beds": "40", "source": "厚生労働省 医療情報ネットのオープンデータ (2026-06-01)", "_id": "3911395109390", "_座標の出典": "原データ"}}, {"type": "Feature", "geometry": {"type": "Point", "coordinates": [133.48991, 33.56696]}, "properties": {"amenity": "hospital", "healthcare": "hospital", "name": "高知生協病院", "official_name": "高知生協病院", "short_name": "高知生協病院", "name:ja-Hira": "こうちせいきょうびょういん", "opening_hours": "Mo,We 09:00-12:30,14:00-17:00; Tu,Fr 09:00-12:30,14:00-19:00; Th 09:00-12:30,15:00-19:00; Sa 09:00-12:30; PH off; Dec 30-Jan 03 off", "healthcare:speciality": "internal;endocrinology;pulmonology;cardiology;gastroenterology;surgery;cardiothoracic_surgery;abdominal_surgery;proctology;orthopaedics;rheumatology;physiatry;radiology;emergency", "emergency": "yes", "website": "http://www.kochi-hco-op.or.jp", "addr:full": "高知県高知市口細山２０６－９", "addr:country": "JP", "addr:province": "高知県", "addr:city": "高知市", "addr:neighbourhood": "口細山", "beds": "114", "source": "厚生労働省 医療情報ネットのオープンデータ (2026-06-01)", "_id": "3911395109550", "_座標の出典": "原データ"}}, {"type": "Feature", "geometry": {"type": "Point", "coordinates": [133.647939, 33.575865]}, "properties": {"amenity": "hospital", "healthcare": "hospital", "name": "南国中央病院", "official_name": "南国中央病院", "short_name": "南国中央病院", "name:ja-Hira": "なんごくちゅうおうびょういん", "name:en": "Nangokutyuuou Hospital", "opening_hours": "Mo,We,Th,Fr 08:30-12:00,13:00-17:00; Tu,Sa 08:30-12:00; PH off; Dec 30-Jan 03,Jan 13,Feb 11,Feb 24,Mar 20,Apr 29,May 03-May 06,Jul 21,Aug 11,Sep 15,Sep 23,Oct 13,Nov 03,Nov 24 off", "healthcare:speciality": "internal;endocrinology;pulmonology;cardiology;gastroenterology;nephrology;surgery;neurosurgery;orthopaedics;physiatry", "website": "http://www.chisio-group.or.jp/", "addr:full": "高知県南国市後免町３－１－２７", "addr:country": "JP", "addr:province": "高知県", "addr:city": "南国市", "addr:neighbourhood": "後免町三丁目", "addr:block_number": "1", "addr:housenumber": "27", "beds": "99", "source": "厚生労働省 医療情報ネットのオープンデータ (2026-06-01)", "_id": "3911395110080", "_座標の出典": "原データ"}}, {"type": "Feature", "geometry": {"type": "Point", "coordinates": [133.425103, 33.547805]}, "properties": {"amenity": "hospital", "healthcare": "hospital", "name": "森木病院", "official_name": "森木病院", "short_name": "森木病院", "name:ja-Hira": "もりきびょういん", "name:en": "Moriki Hospital", "opening_hours": "Mo,We,Fr,Sa 08:30-12:30,14:00-17:30; Tu,Th 08:30-12:30,14:00-17:00; PH off; Dec 31-Jan 02,Feb 11,Feb 23,Mar 20,Apr 29,May 03-May 06,Jul 20,Aug 11,Sep 21-Sep 23,Oct 12,Nov 03,Nov 23 off", "healthcare:speciality": "internal;gastroenterology;nephrology;dialysis;dermatology;urology", "website": "https://www.morikihp.com/", "addr:full": "高知県吾川郡いの町３６７４番地", "addr:country": "JP", "addr:province": "高知県", "addr:county": "吾川郡", "addr:city": "いの町", "beds": "33", "source": "厚生労働省 医療情報ネットのオープンデータ (2026-06-01)", "_id": "3911395110110", "_座標の出典": "原データ"}}, {"type": "Feature", "geometry": {"type": "Point", "coordinates": [133.486009, 33.53706]}, "properties": {"amenity": "hospital", "healthcare": "hospital", "name": "高知脳神経外科病院", "official_name": "医療法人　みつる会　高知脳神経外科病院", "short_name": "高知脳神経外科病院", "opening_hours": "Mo,Tu,We,Th,Fr 09:00-12:00,14:00-17:00; Sa 09:00-12:00; PH off; Dec 30-Jan 03 off", "healthcare:speciality": "internal;cardiology;neurosurgery;cardiothoracic_surgery;orthopaedics;physiatry", "website": "http://www.kochi-nsg.net", "addr:full": "高知県高知市朝倉戊７６７－５", "addr:country": "JP", "addr:province": "高知県", "addr:city": "高知市", "addr:neighbourhood": "朝倉戊", "beds": "46", "source": "厚生労働省 医療情報ネットのオープンデータ (2026-06-01)", "_id": "3911395110370", "_座標の出典": "原データ"}}, {"type": "Feature", "geometry": {"type": "Point", "coordinates": [133.536717, 33.563637]}, "properties": {"amenity": "hospital", "healthcare": "hospital", "name": "中ノ橋病院", "official_name": "医療法人博信会　中ノ橋病院", "short_name": "中ノ橋病院", "name:en": "Nakanohashi Hospital", "opening_hours": "Mo 09:00-12:00,13:00-17:30; Tu,We,Th,Fr 09:00-17:30; Sa 09:00-13:00; Sa[2] off; PH off; Dec 31-Jan 03 off", "healthcare:speciality": "internal;pulmonology;cardiology;gastroenterology;surgery;proctology;orthopaedics;physiatry", "website": "http://www.nakanohashi-hp.jp/", "addr:full": "高知県高知市永国寺町１－４６", "addr:country": "JP", "addr:province": "高知県", "addr:city": "高知市", "addr:neighbourhood": "永国寺町", "addr:block_number": "1", "addr:housenumber": "46", "beds": "41", "source": "厚生労働省 医療情報ネットのオープンデータ (2026-06-01)", "_id": "3911395110400", "_座標の出典": "原データ"}}, {"type": "Feature", "geometry": {"type": "Point", "coordinates": [133.5411, 33.564942]}, "properties": {"amenity": "hospital", "healthcare": "hospital", "name": "近森リハビリテーション病院", "official_name": "近森リハビリテーション病院", "short_name": "近森リハビリテーション病院", "name:ja-Hira": "ちかもりりはびりてーしょんびょういん", "name:en": "Chikamorirehabilitation Hospital", "opening_hours": "Mo,Tu,We,Fr 09:00-12:00; Th 09:00-12:00,13:30-17:00; PH off; Dec 30-Jan 03 off", "healthcare:speciality": "internal;neurology;physiatry", "website": "https://www.chikamori.com/rehahp/", "addr:full": "高知県高知市廿代町２番２２号", "addr:country": "JP", "addr:province": "高知県", "addr:city": "高知市", "addr:neighbourhood": "廿代町", "addr:block_number": "2", "addr:housenumber": "22", "beds": "180", "source": "厚生労働省 医療情報ネットのオープンデータ (2026-06-01)", "_id": "3911395110660", "_座標の出典": "原データ"}}, {"type": "Feature", "geometry": {"type": "Point", "coordinates": [133.633327, 33.582611]}, "properties": {"amenity": "hospital", "healthcare": "hospital", "name": "医療福祉センター", "official_name": "土佐希望の家　医療福祉センター", "short_name": "土佐希望の家　医療福祉センター", "name:en": "Tosakibounoie Iryoufukushi Center", "opening_hours": "Mo,Tu,We,Th,Fr 09:00-12:00,13:00-17:00; PH off; Dec 29-Jan 03,Jan 11,Feb 11,Feb 23,Mar 23,Apr 29,May 04-May 06,Jul 20,Aug 11,Sep 21-Sep 23,Oct 12,Nov 03,Nov 23 off", "healthcare:speciality": "internal;paediatrics;physiatry", "website": "http://www.tosakibou.jp/", "addr:full": "高知県南国市小籠１０７番地", "addr:country": "JP", "addr:province": "高知県", "addr:city": "南国市", "addr:neighbourhood": "小籠", "beds": "142", "source": "厚生労働省 医療情報ネットのオープンデータ (2026-06-01)", "_id": "3911395110790", "_座標の出典": "原データ"}}, {"type": "Feature", "geometry": {"type": "Point", "coordinates": [133.549891, 33.573152]}, "properties": {"amenity": "hospital", "healthcare": "hospital", "name": "仁栄会島津病院", "official_name": "医療法人仁栄会島津病院", "short_name": "医療法人仁栄会島津病院", "opening_hours": "Mo,Tu,We,Fr 09:00-12:00,14:00-18:00; Th 09:00-12:00,14:00-18:00,19:00-11:00; Sa 09:00-12:00; PH off; Dec 29-Jan 03 off", "healthcare:speciality": "internal;endocrinology;cardiology;gastroenterology;nephrology;dialysis;surgery;abdominal_surgery;proctology;orthopaedics;dermatology;urology;rheumatology;physiatry", "website": "http://www.shimazuhp.jp/", "addr:full": "高知県高知市比島町４ー６ー２２", "addr:country": "JP", "addr:province": "高知県", "addr:city": "高知市", "addr:neighbourhood": "比島町四丁目", "addr:block_number": "6", "addr:housenumber": "22", "beds": "69", "source": "厚生労働省 医療情報ネットのオープンデータ (2026-06-01)", "_id": "3911395110820", "_座標の出典": "原データ"}}, {"type": "Feature", "geometry": {"type": "Point", "coordinates": [133.67127, 33.568925]}, "properties": {"amenity": "hospital", "healthcare": "hospital", "name": "南国厚生病院", "official_name": "南国厚生病院", "short_name": "南国厚生病院", "name:ja-Hira": "なんごくこうせいびょういん", "name:en": "Nangokukousei Hospital (Nangokukousei Byoin)", "opening_hours": "Mo,Tu,We,Th,Fr 09:00-12:00,13:00-17:00; PH off; Dec 29-Jan 03 off", "healthcare:speciality": "internal;pulmonology;cardiology;gastroenterology;surgery;orthopaedics;psychiatry;physiatry;radiology", "website": "https://chihiro-hp.or.jp/", "addr:full": "高知県南国市立田１１８０番地", "addr:country": "JP", "addr:province": "高知県", "addr:city": "南国市", "addr:neighbourhood": "立田", "beds": "88", "source": "厚生労働省 医療情報ネットのオープンデータ (2026-06-01)", "_id": "3911395110950", "_座標の出典": "原データ"}}, {"type": "Feature", "geometry": {"type": "Point", "coordinates": [133.897538, 33.506289]}, "properties": {"amenity": "hospital", "healthcare": "hospital", "name": "高知県立あき総合病院", "official_name": "高知県立あき総合病院", "short_name": "あき総合病院", "name:ja-Hira": "こうちけんりつあきそうごうびょういん", "name:en": "Aki GeneralHospital", "opening_hours": "Mo,Th,Fr 08:30-12:00,13:30-16:30; Tu,We 08:30-12:00,14:00-16:00; PH off; Dec 29-Jan 03 off", "healthcare:speciality": "internal;pulmonology;cardiology;gastroenterology;neurology;surgery;neurosurgery;orthopaedics;paediatrics;gynaecology;ophthalmology;otolaryngology;dermatology;urology;psychiatry;rheumatology;physiatry;radiology;emergency;anaesthetics", "emergency": "yes", "website": "https://www.akihp.jp/", "addr:full": "高知県安芸市宝永町３－３３", "addr:country": "JP", "addr:province": "高知県", "addr:city": "安芸市", "addr:neighbourhood": "宝永町", "addr:block_number": "3", "addr:housenumber": "33", "beds": "270", "source": "厚生労働省 医療情報ネットのオープンデータ (2026-06-01)", "_id": "3911395200200", "_座標の出典": "原データ"}}, {"type": "Feature", "geometry": {"type": "Point", "coordinates": [133.908469, 33.498381]}, "properties": {"amenity": "hospital", "healthcare": "hospital", "name": "森澤病院", "official_name": "森澤病院", "short_name": "森澤病院", "name:ja-Hira": "もりさわびょういん", "name:en": "Morisawa Hospital", "opening_hours": "Mo,Tu,We,Fr 08:30-12:00,14:00-18:00; Th 08:30-12:00,14:00-17:00; Sa 08:30-12:00; PH off; Dec 31-Jan 03 off", "healthcare:speciality": "internal;cardiology;gastroenterology;surgery;neurosurgery;orthopaedics;dermatology;dentistry;physiatry;diagnostic_radiology", "website": "http://www.morisawa-hp.com", "addr:full": "高知県安芸市本町２－１３－３２", "addr:country": "JP", "addr:province": "高知県", "addr:city": "安芸市", "addr:neighbourhood": "本町二丁目", "addr:block_number": "13", "addr:housenumber": "32", "beds": "72", "source": "厚生労働省 医療情報ネットのオープンデータ (2026-06-01)", "_id": "3911395200460", "_座標の出典": "原データ"}}, {"type": "Feature", "geometry": {"type": "Point", "coordinates": [133.820163, 33.521524]}, "properties": {"amenity": "hospital", "healthcare": "hospital", "name": "芸西病院", "official_name": "芸西病院", "short_name": "芸西病院", "name:ja-Hira": "げいせいびょういん", "name:en": "Geisei Hospital", "opening_hours": "Mo,Tu,We,Th,Fr 09:00-12:00,13:30-17:00; Sa 09:00-12:00; PH off; Dec 30-Jan 03 off", "healthcare:speciality": "internal;psychiatry;physiatry", "website": "http://okura-kai.com/geisei/", "addr:full": "高知県安芸郡芸西村和食甲４２６８", "addr:country": "JP", "addr:province": "高知県", "addr:county": "安芸郡", "addr:city": "芸西村", "addr:quarter": "和食", "addr:neighbourhood": "甲", "beds": "184", "source": "厚生労働省 医療情報ネットのオープンデータ (2026-06-01)", "_id": "3911395200620", "_座標の出典": "原データ"}}, {"type": "Feature", "geometry": {"type": "Point", "coordinates": [134.008736, 33.429227]}, "properties": {"amenity": "hospital", "healthcare": "hospital", "name": "田野病院", "official_name": "田野病院", "short_name": "田野病院", "name:ja-Hira": "たのびょういん", "name:en": "TanoHospital", "opening_hours": "Mo,Fr 09:00-12:30,14:00-17:30; Tu,We,Th 09:00-12:30,13:30-17:30; Sa 09:00-12:30; PH off; Dec 31-Jan 03 off", "healthcare:speciality": "internal;cardiology;gastroenterology;surgery;neurosurgery;abdominal_surgery;proctology;orthopaedics;paediatrics;ophthalmology;otolaryngology;dermatology;physiatry;radiology", "website": "http://usui-kai.com/", "addr:full": "高知県安芸郡田野町１４１４－１", "addr:country": "JP", "addr:province": "高知県", "addr:county": "安芸郡", "addr:city": "田野町", "beds": "103", "source": "厚生労働省 医療情報ネットのオープンデータ (2026-06-01)", "_id": "3911395200750", "_座標の出典": "原データ"}}, {"type": "Feature", "geometry": {"type": "Point", "coordinates": [133.427036, 33.496261]}, "properties": {"amenity": "hospital", "healthcare": "hospital", "name": "井上病院", "official_name": "井上病院", "short_name": "井上病院", "name:ja-Hira": "いのうえびょういん", "name:en": "Inoue Hospital", "opening_hours": "Mo,Tu,We,Th,Fr 09:00-12:00,13:30-18:00; Sa 09:00-12:30,13:30-17:00; Su 09:00-12:30; PH off; Dec 29-Jan 03 off", "healthcare:speciality": "internal;pulmonology;cardiology;gastroenterology;surgery;proctology;ophthalmology;dermatology;allergology;physiatry", "website": "http://tosa-inouehp.jp", "addr:full": "高知県土佐市高岡町甲２０４４", "addr:country": "JP", "addr:province": "高知県", "addr:city": "土佐市", "addr:neighbourhood": "高岡町甲", "beds": "50", "source": "厚生労働省 医療情報ネットのオープンデータ (2026-06-01)", "_id": "3911395300100", "_座標の出典": "原データ"}}, {"type": "Feature", "geometry": {"type": "Point", "coordinates": [133.458236, 33.449488]}, "properties": {"amenity": "hospital", "healthcare": "hospital", "name": "白菊園病院", "official_name": "白菊園病院", "short_name": "白菊園病院", "name:ja-Hira": "しらぎくえんびょういん", "name:ja-Latn": "Siragikuen Byoin", "opening_hours": "Mo,Tu,We,Th,Fr 09:00-17:00; Sa 09:00-12:00; Sa[2,4] off; PH off; Dec 30-Jan 03 off", "healthcare:speciality": "internal;cardiology;gastroenterology;neurology;surgery;neurosurgery;abdominal_surgery;orthopaedics;physiatry", "website": "http://siragiku.jp", "addr:full": "高知県土佐市新居萩の里１", "addr:country": "JP", "addr:province": "高知県", "addr:city": "土佐市", "addr:neighbourhood": "新居", "beds": "187", "source": "厚生労働省 医療情報ネットのオープンデータ (2026-06-01)", "_id": "3911395300230", "_座標の出典": "原データ"}}, {"type": "Feature", "geometry": {"type": "Point", "coordinates": [133.423515, 33.494203]}, "properties": {"amenity": "hospital", "healthcare": "hospital", "name": "土佐市立土佐市民病院", "official_name": "土佐市立土佐市民病院", "short_name": "土佐市民病院", "name:ja-Hira": "とさしりつとさしみんびょういん", "name:en": "tosa municipal hospital", "opening_hours": "Mo,Tu,We,Th,Fr 08:30-12:00,13:00-17:15; PH off; Dec 29-Jan 03 off", "healthcare:speciality": "internal;pulmonology;cardiology;gastroenterology;nephrology;neurology;surgery;neurosurgery;orthopaedics;paediatrics;gynaecology;ophthalmology;otolaryngology;dermatology;urology;psychiatry;rheumatology;physiatry;radiology;emergency;anaesthetics", "emergency": "yes", "website": "http://www.city.tosa.lg.jp/hospital/", "addr:full": "高知県土佐市高岡町甲１８６７", "addr:country": "JP", "addr:province": "高知県", "addr:city": "土佐市", "addr:neighbourhood": "高岡町甲", "beds": "150", "source": "厚生労働省 医療情報ネットのオープンデータ (2026-06-01)", "_id": "3911395300360", "_座標の出典": "原データ"}}, {"type": "Feature", "geometry": {"type": "Point", "coordinates": [133.284539, 33.390607]}, "properties": {"amenity": "hospital", "healthcare": "hospital", "name": "高陵病院", "official_name": "高陵病院", "short_name": "高陵病院", "name:ja-Hira": "こうりょうびょういん", "name:en": "Koryo Hospital", "opening_hours": "Mo,Tu,We,Th,Fr,Sa 09:00-12:00,13:30-17:00; PH off; Jan 03,Dec 30 off", "healthcare:speciality": "internal;haematology;pulmonology;cardiology;gastroenterology;nephrology;surgery;cardiothoracic_surgery;abdominal_surgery;orthopaedics;plastic_surgery;dermatology;urology;physiatry;radiology", "website": "https://koryo-hp.or.jp", "addr:full": "高知県須崎市横町１番２８号", "addr:country": "JP", "addr:province": "高知県", "addr:city": "須崎市", "addr:neighbourhood": "横町", "addr:block_number": "1", "addr:housenumber": "28", "beds": "129", "source": "厚生労働省 医療情報ネットのオープンデータ (2026-06-01)", "_id": "3911395300490", "_座標の出典": "原データ"}}, {"type": "Feature", "geometry": {"type": "Point", "coordinates": [133.285941, 33.412663]}, "properties": {"amenity": "hospital", "healthcare": "hospital", "name": "一陽病院", "official_name": "一陽病院", "short_name": "一陽病院", "name:ja-Hira": "いちようびょういん", "name:en": "ICHIYO MENTAL HOSPITAL", "opening_hours": "Mo,Tu,Th,Fr 09:00-12:00,13:30-17:00; We,Sa 09:00-12:00; Sa[1,3,5] off; PH off; Dec 30-Jan 03 off", "healthcare:speciality": "psychiatry;geriatrics", "website": "http://www.ichiyo-hp.jp/", "addr:full": "高知県須崎市赤崎町９－３", "addr:country": "JP", "addr:province": "高知県", "addr:city": "須崎市", "addr:neighbourhood": "赤崎町", "addr:block_number": "9", "addr:housenumber": "3", "beds": "218", "source": "厚生労働省 医療情報ネットのオープンデータ (2026-06-01)", "_id": "3911395300650", "_座標の出典": "原データ"}}, {"type": "Feature", "geometry": {"type": "Point", "coordinates": [133.283478, 33.388674]}, "properties": {"amenity": "hospital", "healthcare": "hospital", "name": "ネオリゾートちひろ病院", "official_name": "ネオリゾートちひろ病院", "short_name": "ネオリゾートちひろ病院", "name:ja-Hira": "ねおりぞーとちひろびょういん", "name:en": "chihiro Hospital", "opening_hours": "Mo,Tu,We,Th,Fr 09:00-12:00; Sa 09:00-12:30; PH off; Dec 30-Jan 03 off", "healthcare:speciality": "internal;pulmonology;cardiology;gastroenterology;orthopaedics;physiatry", "website": "https://chihiro-susaki.com/", "addr:full": "高知県須崎市中町１ー６ー２５", "addr:country": "JP", "addr:province": "高知県", "addr:city": "須崎市", "addr:neighbourhood": "中町一丁目", "addr:block_number": "6", "addr:housenumber": "25", "beds": "54", "source": "厚生労働省 医療情報ネットのオープンデータ (2026-06-01)", "_id": "3911395300780", "_座標の出典": "原データ"}}, {"type": "Feature", "geometry": {"type": "Point", "coordinates": [133.289361, 33.411713]}, "properties": {"amenity": "hospital", "healthcare": "hospital", "name": "須崎くろしお病院", "official_name": "須崎くろしお病院", "short_name": "須崎くろしお病院", "name:ja-Hira": "すさきくろしおびょういん", "name:en": "Susakikuroshio Hospital", "opening_hours": "Mo 09:00-12:00,13:30-17:00; Tu 08:30-12:00,13:30-17:00; We,Fr 08:30-12:00,13:00-17:00; Th 08:30-12:30,13:30-17:00; Sa 08:30-12:00; PH off; Dec 30-Jan 03 off", "healthcare:speciality": "internal;endocrinology;cardiology;gastroenterology;neurology;geriatrics;surgery;neurosurgery;abdominal_surgery;proctology;orthopaedics;paediatrics;ophthalmology;otolaryngology;dermatology;urology;physiatry;radiology;anaesthetics", "website": "https://susaki-kuroshio-hp.or.jp/", "addr:full": "高知県須崎市緑町４番３０号", "addr:country": "JP", "addr:province": "高知県", "addr:city": "須崎市", "addr:neighbourhood": "緑町", "addr:block_number": "4", "addr:housenumber": "30", "beds": "158", "source": "厚生労働省 医療情報ネットのオープンデータ (2026-06-01)", "_id": "3911395301080", "_座標の出典": "原データ"}}, {"type": "Feature", "geometry": {"type": "Point", "coordinates": [133.228471, 33.327915]}, "properties": {"amenity": "hospital", "healthcare": "hospital", "name": "なかとさ病院", "official_name": "なかとさ病院", "short_name": "なかとさ病院", "name:ja-Hira": "なかとさびょういん", "name:ja-Latn": "Nakatosa Byouin", "opening_hours": "Mo,Tu,We,Th,Fr 09:00-12:30,13:30-17:30; Sa 09:00-12:30; PH off; Dec 31-Jan 03 off", "healthcare:speciality": "internal;gastroenterology;dialysis;neurosurgery", "addr:full": "高知県高岡郡中土佐町久礼６６１４", "addr:country": "JP", "addr:province": "高知県", "addr:county": "高岡郡", "addr:city": "中土佐町", "addr:neighbourhood": "久礼", "beds": "20", "source": "厚生労働省 医療情報ネットのオープンデータ (2026-06-01)", "_id": "3911395301110", "_座標の出典": "原データ"}}, {"type": "Feature", "geometry": {"type": "Point", "coordinates": [132.924915, 33.392538]}, "properties": {"amenity": "hospital", "healthcare": "hospital", "name": "檮原町立国民健康保険梼原病院", "official_name": "檮原町立国民健康保険梼原病院", "short_name": "国保梼原病院", "name:ja-Hira": "ゆすはらちょうりつこくみんけんこうほけんゆすはらびょういん", "name:en": "Kokuho Yusuhara Hospital", "opening_hours": "Mo,Tu,We,Th,Fr 08:30-12:00,13:00-17:00; PH off; Dec 29-Jan 03 off", "healthcare:speciality": "internal;orthopaedics;paediatrics;ophthalmology;dermatology", "website": "http://www.town.yusuhara.kochi.jp/hospital", "addr:full": "高知県高岡郡檮原町川西路２３２０ー１", "addr:country": "JP", "addr:province": "高知県", "addr:county": "高岡郡", "addr:city": "檮原町", "addr:neighbourhood": "川西路", "beds": "30", "source": "厚生労働省 医療情報ネットのオープンデータ (2026-06-01)", "_id": "3911395301240", "_座標の出典": "原データ"}}, {"type": "Feature", "geometry": {"type": "Point", "coordinates": [132.921917, 32.983132]}, "properties": {"amenity": "hospital", "healthcare": "hospital", "name": "渡川病院", "official_name": "渡川病院", "short_name": "渡川病院", "name:ja-Hira": "わたりがわびょういん", "name:ja-Latn": "Watarigawa Byouin", "opening_hours": "Mo,Tu,We,Th,Fr 09:00-12:00,13:30-17:00; PH off; Dec 30-Jan 03,May 06,Sep 22 off", "healthcare:speciality": "psychiatry", "website": "http://www.watarigawa.com", "addr:full": "高知県四万十市具同２２７８－１", "addr:country": "JP", "addr:province": "高知県", "addr:city": "四万十市", "addr:neighbourhood": "具同", "beds": "180", "source": "厚生労働省 医療情報ネットのオープンデータ (2026-06-01)", "_id": "3911395400130", "_座標の出典": "原データ"}}, {"type": "Feature", "geometry": {"type": "Point", "coordinates": [132.937187, 32.992032]}, "properties": {"amenity": "hospital", "healthcare": "hospital", "name": "木俵病院", "official_name": "木俵病院", "short_name": "木俵病院", "name:ja-Hira": "きだわらびょういん", "name:en": "Kidawara Hospital", "opening_hours": "Mo,Tu,We,Th,Fr,Sa 09:00-12:00,14:00-17:00; PH off; Jan 02-Jan 03,Dec 30-Dec 31 off", "healthcare:speciality": "internal;gastroenterology;surgery;proctology;otolaryngology;physiatry", "website": "http://kidawara-hp.net/", "addr:full": "高知県四万十市中村一条通３－３－２５", "addr:country": "JP", "addr:province": "高知県", "addr:city": "四万十市", "addr:neighbourhood": "中村一条通三丁目", "beds": "42", "source": "厚生労働省 医療情報ネットのオープンデータ (2026-06-01)", "_id": "3911395400260", "_座標の出典": "原データ"}}, {"type": "Feature", "geometry": {"type": "Point", "coordinates": [132.937462, 32.993695]}, "properties": {"amenity": "hospital", "healthcare": "hospital", "name": "四万十市国民健康保険四万十市立市民病院", "official_name": "四万十市国民健康保険四万十市立市民病院", "short_name": "四万十市立市民病院", "name:ja-Hira": "しまんとしこくみんけんこうほけんしまんとしりつしみんびょういん", "name:en": "shimanto city Hospital", "opening_hours": "Mo,Tu,We,Th,Fr 09:00-12:00,14:00-17:00; PH off; Dec 29-Jan 03 off", "healthcare:speciality": "internal;surgery;neurosurgery;orthopaedics;urology;physiatry;anaesthetics", "website": "https://www.city.shimanto.lg.jp/site/hospital/", "addr:full": "高知県四万十市中村東町１ー１ー２７", "addr:country": "JP", "addr:province": "高知県", "addr:city": "四万十市", "addr:neighbourhood": "中村東町一丁目", "beds": "89", "source": "厚生労働省 医療情報ネットのオープンデータ (2026-06-01)", "_id": "3911395400390", "_座標の出典": "原データ"}}, {"type": "Feature", "geometry": {"type": "Point", "coordinates": [132.945518, 32.978421]}, "properties": {"amenity": "hospital", "healthcare": "hospital", "name": "竹本病院", "official_name": "竹本病院", "short_name": "竹本病院", "name:ja-Hira": "たけもとびょういん", "name:en": "takemoto hospital", "opening_hours": "Mo,Tu,Th,Fr 09:00-12:30,13:30-17:30; We 09:00-12:30,14:00-17:30; Sa 09:00-12:30; Sa[2,4] off; PH off; Dec 29-Jan 03,Aug 13-Aug 15 off", "healthcare:speciality": "internal;endocrinology;pulmonology;cardiology;gastroenterology;nephrology;neurosurgery;orthopaedics;ophthalmology;urology;dentistry;physiatry;radiology", "website": "http://takemoto-hp.com", "addr:full": "高知県四万十市右山１９７３番地２", "addr:country": "JP", "addr:province": "高知県", "addr:city": "四万十市", "addr:neighbourhood": "右山", "beds": "131", "source": "厚生労働省 医療情報ネットのオープンデータ (2026-06-01)", "_id": "3911395400420", "_座標の出典": "原データ"}}, {"type": "Feature", "geometry": {"type": "Point", "coordinates": [132.932644, 32.994637]}, "properties": {"amenity": "hospital", "healthcare": "hospital", "name": "中村病院", "official_name": "中村病院", "short_name": "中村病院", "name:ja-Hira": "なかむらびょういん", "name:en": "Nakamura Hospital", "healthcare:speciality": "internal;pulmonology;cardiology;gastroenterology;physiatry;radiology", "addr:full": "高知県四万十市中村小姓町７５番地", "addr:country": "JP", "addr:province": "高知県", "addr:city": "四万十市", "addr:neighbourhood": "中村小姓町", "beds": "60", "source": "厚生労働省 医療情報ネットのオープンデータ (2026-06-01)", "_id": "3911395400550", "_座標の出典": "原データ"}}, {"type": "Feature", "geometry": {"type": "Point", "coordinates": [132.936526, 32.991985]}, "properties": {"amenity": "hospital", "healthcare": "hospital", "name": "森下病院", "official_name": "森下病院", "short_name": "森下病院", "name:ja-Hira": "もりしたびょういん", "name:en": "Morishita Hospital", "opening_hours": "Mo,Tu,We,Th,Fr 08:30-12:30,13:30-17:00; Sa 08:30-12:30,13:30-16:00; PH off; Dec 30-Jan 03 off", "healthcare:speciality": "internal;endocrinology;pulmonology;cardiology;gastroenterology;orthopaedics;dermatology;physiatry;diagnostic_radiology", "website": "http://www.morishitahp.jp", "addr:full": "高知県四万十市中村一条通２丁目４４番地", "addr:country": "JP", "addr:province": "高知県", "addr:city": "四万十市", "addr:neighbourhood": "中村一条通二丁目", "beds": "86", "source": "厚生労働省 医療情報ネットのオープンデータ (2026-06-01)", "_id": "3911395400840", "_座標の出典": "原データ"}}, {"type": "Feature", "geometry": {"type": "Point", "coordinates": [132.731412, 32.935184]}, "properties": {"amenity": "hospital", "healthcare": "hospital", "name": "大井田病院", "official_name": "大井田病院", "short_name": "大井田病院", "name:ja-Hira": "おおいだびょういん", "name:en": "Ooida Hospital", "opening_hours": "Mo 09:00-12:30,14:00-17:00; Tu,We,Th,Fr 09:00-12:00,14:00-17:00; Sa 09:00-12:30; PH off; Dec 30-Jan 03,Feb 23,May 05,Aug 11,Nov 03 off", "healthcare:speciality": "internal;cardiology;gastroenterology;surgery;orthopaedics;paediatrics;dermatology;physiatry", "website": "http://www.ooida-hp.net", "addr:full": "高知県宿毛市中央８丁目３番６号", "addr:country": "JP", "addr:province": "高知県", "addr:city": "宿毛市", "addr:neighbourhood": "中央八丁目", "addr:block_number": "3", "addr:housenumber": "6", "beds": "50", "source": "厚生労働省 医療情報ネットのオープンデータ (2026-06-01)", "_id": "3911395401140", "_座標の出典": "原データ"}}, {"type": "Feature", "geometry": {"type": "Point", "coordinates": [132.797547, 32.959159]}, "properties": {"amenity": "hospital", "healthcare": "hospital", "name": "筒井病院", "official_name": "筒井病院", "short_name": "筒井病院", "name:ja-Hira": "つついびょういん", "name:en": "Tsutsui Hospital", "opening_hours": "Mo,Tu,We,Th,Fr,Sa 09:00-12:00,13:30-17:00; PH off; Dec 30-Jan 03 off", "healthcare:speciality": "internal;pulmonology;cardiology;gastroenterology;orthopaedics;physiatry;radiology", "website": "http://goseikai.jp/", "addr:full": "高知県宿毛市平田町戸内１８０２", "addr:country": "JP", "addr:province": "高知県", "addr:city": "宿毛市", "addr:neighbourhood": "平田町戸内", "beds": "56", "source": "厚生労働省 医療情報ネットのオープンデータ (2026-06-01)", "_id": "3911395401300", "_座標の出典": "原データ"}}, {"type": "Feature", "geometry": {"type": "Point", "coordinates": [132.765535, 32.945641]}, "properties": {"amenity": "hospital", "healthcare": "hospital", "name": "聖ヶ丘病院", "official_name": "聖ヶ丘病院", "short_name": "聖ヶ丘病院", "name:ja-Hira": "ひじりがおかびょういん", "opening_hours": "Mo,Tu,We,Th,Fr 09:00-17:15; PH off; Dec 30-Jan 03 off", "healthcare:speciality": "internal;psychiatry", "website": "https://www.hijiri-hp.jp/", "addr:full": "高知県宿毛市押ノ川１１９６", "addr:country": "JP", "addr:province": "高知県", "addr:city": "宿毛市", "addr:neighbourhood": "押ノ川", "beds": "211", "source": "厚生労働省 医療情報ネットのオープンデータ (2026-06-01)", "_id": "3911395401430", "_座標の出典": "原データ"}}, {"type": "Feature", "geometry": {"type": "Point", "coordinates": [132.709635, 32.821059]}, "properties": {"amenity": "hospital", "healthcare": "hospital", "name": "大月町国民健康保険大月病院", "official_name": "大月町国民健康保険大月病院", "short_name": "国保大月病院", "name:ja-Hira": "おおつきちょうこくみんけんこうほけんおおつきびょういん", "opening_hours": "Mo 08:30-12:00,13:00-18:00; Tu,We,Th,Fr 08:30-12:00,13:00-17:15; PH off; Dec 29-Jan 03 off", "healthcare:speciality": "internal;dental_oral_maxillo_facial_surgery", "website": "http://www.town.otsuki.kochi.jp/hospital/", "addr:full": "高知県幡多郡大月町鉾土６０３番地", "addr:country": "JP", "addr:province": "高知県", "addr:county": "幡多郡", "addr:city": "大月町", "addr:neighbourhood": "大字鉾土", "beds": "25", "source": "厚生労働省 医療情報ネットのオープンデータ (2026-06-01)", "_id": "3911395401690", "_座標の出典": "原データ"}}, {"type": "Feature", "geometry": {"type": "Point", "coordinates": [132.781091, 32.961195]}, "properties": {"amenity": "hospital", "healthcare": "hospital", "name": "幡多希望の家医療福祉センター", "official_name": "幡多希望の家医療福祉センター", "short_name": "幡多希望の家医療福祉センター", "name:ja-Hira": "はたきぼうのいえいりょうふくしせんたー", "name:ja-Latn": "Hatakibounoieiryouhukusisenta", "opening_hours": "Mo,Tu,We,Th,Fr,Sa 09:00-12:00,13:30-17:30; PH off; Dec 30-Jan 03 off", "healthcare:speciality": "internal;paediatrics;psychiatry;physiatry;radiology", "website": "http://www.hatakibou.jp/", "addr:full": "高知県宿毛市平田町中山８６７番地", "addr:country": "JP", "addr:province": "高知県", "addr:city": "宿毛市", "addr:neighbourhood": "平田町中山", "beds": "51", "source": "厚生労働省 医療情報ネットのオープンデータ (2026-06-01)", "_id": "3911395401850", "_座標の出典": "原データ"}}, {"type": "Feature", "geometry": {"type": "Point", "coordinates": [132.80553, 32.96675]}, "properties": {"amenity": "hospital", "healthcare": "hospital", "name": "高知県立幡多けんみん病院", "official_name": "高知県立幡多けんみん病院", "short_name": "幡多けんみん病院", "name:ja-Hira": "こうちけんりつはたけんみんびょういん", "name:en": "Hata Kenmin Hospital", "opening_hours": "Mo,Tu,We,Th,Fr 08:30-11:30; PH off; Dec 29-Jan 03 off", "healthcare:speciality": "internal;pulmonology;cardiology;gastroenterology;neurology;surgery;neurosurgery;abdominal_surgery;orthopaedics;paediatrics;gynaecology;ophthalmology;otolaryngology;dermatology;urology;psychiatry;physiatry;radiology;pathology;anaesthetics", "website": "https://www.pref.kochi.lg.jp/hata/", "addr:full": "高知県宿毛市山奈町芳奈３－１", "addr:country": "JP", "addr:province": "高知県", "addr:city": "宿毛市", "addr:neighbourhood": "山奈町芳奈", "beds": "322", "source": "厚生労働省 医療情報ネットのオープンデータ (2026-06-01)", "_id": "3911395401980", "_座標の出典": "原データ"}}, {"type": "Feature", "geometry": {"type": "Point", "coordinates": [133.697171, 33.607973]}, "properties": {"amenity": "hospital", "healthcare": "hospital", "name": "同仁病院", "official_name": "同仁病院", "short_name": "同仁病院", "name:ja-Hira": "どうじんびょういん", "name:en": "Doujin Hospital", "opening_hours": "Mo,Tu,We,Th,Fr 09:00-12:00,13:30-17:00; Sa 09:00-12:00; Sa[2,4] off; PH off; Dec 30-Jan 03 off", "healthcare:speciality": "internal;gastroenterology;urology;psychiatry;geriatrics;physiatry;radiology", "website": "http://doujin-hp.or.jp/", "addr:full": "高知県香美市土佐山田町百石町２ー５ー２０", "addr:country": "JP", "addr:province": "高知県", "addr:city": "香美市", "addr:neighbourhood": "土佐山田町百石町二丁目", "addr:block_number": "5", "addr:housenumber": "20", "beds": "252", "source": "厚生労働省 医療情報ネットのオープンデータ (2026-06-01)", "_id": "3911395500290", "_座標の出典": "原データ"}}, {"type": "Feature", "geometry": {"type": "Point", "coordinates": [133.678654, 33.603849]}, "properties": {"amenity": "hospital", "healthcare": "hospital", "name": "香長中央病院", "official_name": "香長中央病院", "short_name": "香長中央病院", "name:ja-Hira": "かちょうちゅうおうびょういん", "name:en": "Kachouchuuou Hospital", "opening_hours": "Mo,Tu,We,Th,Fr 08:30-12:00,13:30-17:00; PH off; Dec 29-Jan 03,Apr 29,May 04-May 06,Jul 20,Aug 11,Sep 21-Sep 23,Oct 12,Nov 03,Nov 23 off", "healthcare:speciality": "internal;gastroenterology;physiatry;radiology", "website": "https://kachocentral.com/", "addr:full": "高知県香美市土佐山田町西本町５－５－３４", "addr:country": "JP", "addr:province": "高知県", "addr:city": "香美市", "addr:neighbourhood": "土佐山田町西本町五丁目", "addr:block_number": "5", "addr:housenumber": "34", "beds": "194", "source": "厚生労働省 医療情報ネットのオープンデータ (2026-06-01)", "_id": "3911395500320", "_座標の出典": "原データ"}}, {"type": "Feature", "geometry": {"type": "Point", "coordinates": [133.778898, 33.650092]}, "properties": {"amenity": "hospital", "healthcare": "hospital", "name": "香北病院", "official_name": "香北病院", "short_name": "香北病院", "name:ja-Hira": "かほくびょういん", "name:en": "Kahoku Hospital", "opening_hours": "Mo,Tu,We,Th,Fr 08:45-12:00,13:00-17:00; Sa 08:45-12:30; PH off; Dec 31-Jan 03 off", "healthcare:speciality": "internal;cardiology;gastroenterology;surgery;orthopaedics;physiatry", "addr:full": "高知県香美市香北町美良布１０６４ー９", "addr:country": "JP", "addr:province": "高知県", "addr:city": "香美市", "addr:neighbourhood": "香北町美良布", "beds": "30", "source": "厚生労働省 医療情報ネットのオープンデータ (2026-06-01)", "_id": "3911395500610", "_座標の出典": "原データ"}}, {"type": "Feature", "geometry": {"type": "Point", "coordinates": [133.717377, 33.560591]}, "properties": {"amenity": "hospital", "healthcare": "hospital", "name": "野市中央病院", "official_name": "野市中央病院", "short_name": "野市中央病院", "name:ja-Hira": "のいちちゅうおうびょういん", "name:ja-Latn": "Noichichuou Byoin", "opening_hours": "Mo,Tu,We,Th,Fr 09:00-18:00; Sa 09:00-12:30; PH off; Dec 31-Jan 03 off", "healthcare:speciality": "internal;cardiology;gastroenterology;dialysis;surgery;neurosurgery;abdominal_surgery;orthopaedics;ophthalmology;dermatology;urology;physiatry;radiology", "website": "http://www.kouseikai-g.jp", "addr:full": "高知県香南市野市町東野５５５－１８", "addr:country": "JP", "addr:province": "高知県", "addr:city": "香南市", "addr:neighbourhood": "野市町東野", "beds": "165", "source": "厚生労働省 医療情報ネットのオープンデータ (2026-06-01)", "_id": "3911395501040", "_座標の出典": "原データ"}}, {"type": "Feature", "geometry": {"type": "Point", "coordinates": [133.141047, 33.208677]}, "properties": {"amenity": "hospital", "healthcare": "hospital", "name": "大西病院", "official_name": "大西病院", "short_name": "大西病院", "name:ja-Hira": "おおにしびょういん", "name:en": "Oonishi Hospital", "opening_hours": "Mo 09:00-12:00,13:30-17:00; Tu,We,Th,Fr 09:00-12:00,13:30-16:30; Sa 09:00-12:00; PH off; Dec 29-Jan 03 off", "healthcare:speciality": "internal;surgery;orthopaedics;paediatrics;urology;psychiatry;physiatry;radiology", "website": "http://www.oonishi-hp.or.jp/", "addr:full": "高知県高岡郡四万十町古市町６－１２", "addr:country": "JP", "addr:province": "高知県", "addr:county": "高岡郡", "addr:city": "四万十町", "addr:neighbourhood": "古市町", "addr:block_number": "6", "addr:housenumber": "12", "beds": "50", "source": "厚生労働省 医療情報ネットのオープンデータ (2026-06-01)", "_id": "3911395600220", "_座標の出典": "原データ"}}, {"type": "Feature", "geometry": {"type": "Point", "coordinates": [133.148786, 33.205993]}, "properties": {"amenity": "hospital", "healthcare": "hospital", "name": "くぼかわ病院", "official_name": "くぼかわ病院", "short_name": "くぼかわ病院", "name:ja-Hira": "くぼかわびょういん", "name:en": "Kubokawa Hospital", "opening_hours": "Mo,We,Fr 09:00-12:00,14:00-17:00; Tu,Th 09:00-12:30,14:00-17:00; Sa 09:00-12:30; PH off; Dec 30-Jan 03 off", "healthcare:speciality": "internal;cardiology;neurology;surgery;neurosurgery;abdominal_surgery;proctology;orthopaedics;gynaecology;ophthalmology;otolaryngology;dermatology;urology;psychiatry;rheumatology;physiatry;radiology;anaesthetics", "website": "https://www.kawamurakai.com", "addr:full": "高知県高岡郡四万十町見付９０２ー１", "addr:country": "JP", "addr:province": "高知県", "addr:county": "高岡郡", "addr:city": "四万十町", "addr:neighbourhood": "見付", "beds": "172", "source": "厚生労働省 医療情報ネットのオープンデータ (2026-06-01)", "_id": "3911395600480", "_座標の出典": "原データ"}}, {"type": "Feature", "geometry": {"type": "Point", "coordinates": [133.173703, 33.612746]}, "properties": {"amenity": "hospital", "healthcare": "hospital", "name": "安部病院", "official_name": "安部病院", "short_name": "安部病院", "name:ja-Hira": "あべびょういん", "name:ja-Latn": "Abe Byoin", "opening_hours": "Mo,We,Fr 09:00-12:00,13:30-17:00; Tu,Th 09:00-12:00,15:30-17:00; Sa 09:00-12:00; PH off; Dec 29-Jan 03 off", "healthcare:speciality": "internal", "website": "http://www.abehospital.com", "addr:full": "高知県吾川郡仁淀川町岩丸１０２", "addr:country": "JP", "addr:province": "高知県", "addr:county": "吾川郡", "addr:city": "仁淀川町", "addr:neighbourhood": "岩丸", "beds": "21", "source": "厚生労働省 医療情報ネットのオープンデータ (2026-06-01)", "_id": "3911395700120", "_座標の出典": "原データ"}}, {"type": "Feature", "geometry": {"type": "Point", "coordinates": [133.287033, 33.504258]}, "properties": {"amenity": "hospital", "healthcare": "hospital", "name": "佐川町立高北国民健康保険病院", "official_name": "佐川町立高北国民健康保険病院", "short_name": "佐川町立高北国民健康保険病院", "name:ja-Hira": "さかわちょうりつこうほくこくみんけんこうほけんびょういん", "name:ja-Latn": "Sakawatyoritukohokukokuminkenkohokenbyoin", "opening_hours": "Mo,Tu,We,Th,Fr 08:30-12:00,13:30-17:15; Sa 08:30-12:00; Sa[1,3,5] off; PH off; Dec 29-Jan 03 off", "healthcare:speciality": "internal;endocrinology;pulmonology;cardiology;gastroenterology;surgery;neurosurgery;orthopaedics;paediatrics;gynaecology;physiatry;radiology", "website": "http://www.town.sakawa.lg.jp/kouhoku_hospital/", "addr:full": "高知県高岡郡佐川町甲１６８７番地", "addr:country": "JP", "addr:province": "高知県", "addr:county": "高岡郡", "addr:city": "佐川町", "addr:neighbourhood": "甲", "beds": "98", "source": "厚生労働省 医療情報ネットのオープンデータ (2026-06-01)", "_id": "3911395700250", "_座標の出典": "原データ"}}, {"type": "Feature", "geometry": {"type": "Point", "coordinates": [133.279918, 33.506422]}, "properties": {"amenity": "hospital", "healthcare": "hospital", "name": "清和病院", "official_name": "清和病院", "short_name": "清和病院", "name:ja-Hira": "せいわびょういん", "name:ja-Latn": "Seiwa Byoin", "opening_hours": "Mo,Tu,We,Th,Fr 09:00-12:00,14:00-17:00; Sa 09:00-12:00; PH off; Dec 30-Jan 03 off", "healthcare:speciality": "internal;pulmonology;cardiology;gastroenterology;surgery;neurosurgery;abdominal_surgery;proctology;orthopaedics;psychiatry;geriatrics;physiatry;radiology", "website": "http://www.seiunkai.com/", "addr:full": "高知県高岡郡佐川町乙１７７７番地", "addr:country": "JP", "addr:province": "高知県", "addr:county": "高岡郡", "addr:city": "佐川町", "addr:neighbourhood": "乙", "beds": "334", "source": "厚生労働省 医療情報ネットのオープンデータ (2026-06-01)", "_id": "3911395700380", "_座標の出典": "原データ"}}, {"type": "Feature", "geometry": {"type": "Point", "coordinates": [133.252975, 33.530308]}, "properties": {"amenity": "hospital", "healthcare": "hospital", "name": "北島病院", "official_name": "北島病院", "short_name": "北島病院", "name:ja-Hira": "きたじまびょういん", "name:en": "Kitajima Hospital", "opening_hours": "Mo,We,Th 08:30-12:30,13:30-17:00; Tu,Fr 08:30-12:30,14:00-17:00; Sa 08:30-12:30,13:00-16:00; PH off; Dec 31-Jan 03 off", "healthcare:speciality": "internal;endocrinology;nephrology;dialysis;anaesthetics;surgery;neurosurgery;cardiothoracic_surgery;abdominal_surgery;orthopaedics;gynaecology;ophthalmology;urology;physiatry;radiology", "website": "http://www.kitajima-hp.com/", "addr:full": "高知県高岡郡越知町越知甲１６６２", "addr:country": "JP", "addr:province": "高知県", "addr:county": "高岡郡", "addr:city": "越知町", "addr:neighbourhood": "越知", "beds": "50", "source": "厚生労働省 医療情報ネットのオープンデータ (2026-06-01)", "_id": "3911395700410", "_座標の出典": "原データ"}}, {"type": "Feature", "geometry": {"type": "Point", "coordinates": [133.250368, 33.530864]}, "properties": {"amenity": "hospital", "healthcare": "hospital", "name": "山﨑外科整形外科病院", "official_name": "山﨑外科整形外科病院", "short_name": "山﨑外科整形外科病院", "name:ja-Hira": "やまさきげかせいけいげかびょういん", "name:ja-Latn": "Yamasakigekaseikeigeka Byoin", "opening_hours": "Mo,Tu,We,Th,Fr 09:00-12:00,13:30-17:30; Sa 09:00-12:00,13:30-17:00; PH off; Dec 31-Jan 03,Aug 15 off", "healthcare:speciality": "internal;cardiology;gastroenterology;surgery;neurosurgery;abdominal_surgery;proctology;orthopaedics;physiatry;radiology", "addr:full": "高知県高岡郡越知町越知甲２１０７番地１", "addr:country": "JP", "addr:province": "高知県", "addr:county": "高岡郡", "addr:city": "越知町", "addr:neighbourhood": "越知", "beds": "43", "source": "厚生労働省 医療情報ネットのオープンデータ (2026-06-01)", "_id": "3911395700540", "_座標の出典": "原データ"}}, {"type": "Feature", "geometry": {"type": "Point", "coordinates": [133.249364, 33.530861]}, "properties": {"amenity": "hospital", "healthcare": "hospital", "name": "前田病院", "official_name": "前田病院", "short_name": "前田病院", "name:ja-Hira": "まえだびょういん", "name:ja-Latn": "Maeda Byoin", "opening_hours": "Mo,Tu,We,Th,Fr,Sa 09:00-18:00; PH off; Dec 31-Jan 03 off", "healthcare:speciality": "internal;pulmonology;cardiology;gastroenterology;neurology;surgery;orthopaedics;rheumatology;physiatry;radiology;anaesthetics", "website": "http://maeda-kai-ochi.jp/", "addr:full": "高知県高岡郡越知町越知甲２１３３", "addr:country": "JP", "addr:province": "高知県", "addr:county": "高岡郡", "addr:city": "越知町", "addr:neighbourhood": "越知", "beds": "60", "source": "厚生労働省 医療情報ネットのオープンデータ (2026-06-01)", "_id": "3911395700700", "_座標の出典": "原データ"}}, {"type": "Feature", "geometry": {"type": "Point", "coordinates": [133.250993, 33.53275]}, "properties": {"amenity": "hospital", "healthcare": "hospital", "name": "山﨑病院", "official_name": "山﨑病院", "short_name": "山﨑病院", "name:ja-Hira": "やまさきびょういん", "name:en": "yamasaki hospital", "opening_hours": "Mo,Tu,We,Th,Fr 08:30-12:30,13:30-17:30; Sa 08:30-12:30; PH off; Dec 31-Jan 03 off", "healthcare:speciality": "internal;pulmonology;cardiology;gastroenterology;physiatry;radiology", "website": "http://www.yamasaki.or.jp", "addr:full": "高知県高岡郡越知町越知甲２０４１ー３", "addr:country": "JP", "addr:province": "高知県", "addr:county": "高岡郡", "addr:city": "越知町", "addr:neighbourhood": "越知", "beds": "28", "source": "厚生労働省 医療情報ネットのオープンデータ (2026-06-01)", "_id": "3911395700960", "_座標の出典": "原データ"}}, {"type": "Feature", "geometry": {"type": "Point", "coordinates": [133.588607, 33.759753]}, "properties": {"amenity": "hospital", "healthcare": "hospital", "name": "本山町立国民健康保険嶺北中央病院", "official_name": "本山町立国民健康保険嶺北中央病院", "short_name": "本山町立国保嶺北中央病院", "name:ja-Hira": "もとやまちょうりつこくみんけんこうほけんれいほくちゅうおうびょういん", "name:en": "Reihoku Central Hospital", "opening_hours": "Mo 08:45-12:45,13:15-17:15; Tu,We,Fr 08:45-12:15,13:15-17:15; Th 08:45-12:30,13:15-17:15; Sa 08:45-12:15; Sa[1,3,5] off; PH off; Dec 29-Jan 03 off", "healthcare:speciality": "internal;surgery;neurosurgery;proctology;orthopaedics;gynaecology;dermatology;urology;rheumatology;physiatry", "website": "http://www.reihokuchuo-hp.jp", "addr:full": "高知県長岡郡本山町本山６２０", "addr:country": "JP", "addr:province": "高知県", "addr:county": "長岡郡", "addr:city": "本山町", "addr:neighbourhood": "本山", "beds": "89", "source": "厚生労働省 医療情報ネットのオープンデータ (2026-06-01)", "_id": "3911395800150", "_座標の出典": "原データ"}}, {"type": "Feature", "geometry": {"type": "Point", "coordinates": [133.665992, 33.754454]}, "properties": {"amenity": "hospital", "healthcare": "hospital", "name": "大杉中央病院", "official_name": "大杉中央病院", "short_name": "大杉中央病院", "name:ja-Hira": "おおすぎちゅうおうびょういん", "name:ja-Latn": "Oosugichuou Byoin", "opening_hours": "Mo,Tu,We,Th,Fr 09:00-12:00,13:00-17:00; Sa 09:00-12:00; PH off; Dec 31-Jan 03 off", "healthcare:speciality": "internal;pulmonology;cardiology;gastroenterology;neurology;paediatrics;dentistry;dental_oral_maxillo_facial_surgery;physiatry;radiology", "addr:full": "高知県長岡郡大豊町中村大王１４９７－１", "addr:country": "JP", "addr:province": "高知県", "addr:county": "長岡郡", "addr:city": "大豊町", "addr:neighbourhood": "中村大王", "beds": "60", "source": "厚生労働省 医療情報ネットのオープンデータ (2026-06-01)", "_id": "3911395800280", "_座標の出典": "原データ"}}, {"type": "Feature", "geometry": {"type": "Point", "coordinates": [133.557392, 33.746676]}, "properties": {"amenity": "hospital", "healthcare": "hospital", "name": "早明浦病院", "official_name": "早明浦病院", "short_name": "早明浦病院", "name:ja-Hira": "さめうらびょういん", "name:ja-Latn": "Sameura Byoin", "opening_hours": "Mo,Tu,We,Th,Fr 08:30-12:30,13:30-17:30; Sa 08:30-12:30; Sa[2,4] off; PH off; Dec 31-Jan 03 off", "healthcare:speciality": "internal;surgery;orthopaedics;paediatrics;ophthalmology;otolaryngology;dermatology;urology;psychiatry;dental_oral_maxillo_facial_surgery;physiatry", "website": "http://juzen-kai.or.jp/", "addr:full": "高知県土佐郡土佐町田井１３７２番地", "addr:country": "JP", "addr:province": "高知県", "addr:county": "土佐郡", "addr:city": "土佐町", "addr:neighbourhood": "田井", "beds": "50", "source": "厚生労働省 医療情報ネットのオープンデータ (2026-06-01)", "_id": "3911395800440", "_座標の出典": "原データ"}}, {"type": "Feature", "geometry": {"type": "Point", "coordinates": [134.057993, 33.368644]}, "properties": {"amenity": "hospital", "healthcare": "hospital", "name": "やまもと病院", "official_name": "やまもと病院", "short_name": "やまもと病院", "name:ja-Hira": "やまもとびょういん", "name:en": "YamaMoto Hospital", "opening_hours": "Mo,Tu,We,Th,Fr 09:00-17:00; PH off; Dec 31-Jan 03 off", "healthcare:speciality": "internal;psychiatry", "addr:full": "高知県室戸市羽根町乙１３９２", "addr:country": "JP", "addr:province": "高知県", "addr:city": "室戸市", "addr:neighbourhood": "羽根町乙", "beds": "150", "source": "厚生労働省 医療情報ネットのオープンデータ (2026-06-01)", "_id": "3911395900210", "_座標の出典": "原データ"}}, {"type": "Feature", "geometry": {"type": "Point", "coordinates": [134.155941, 33.28924]}, "properties": {"amenity": "hospital", "healthcare": "hospital", "name": "室戸中央病院", "official_name": "室戸中央病院", "short_name": "室戸中央病院", "name:ja-Hira": "むろとちゅうおうびょういん", "opening_hours": "Mo,Tu,We,Th,Fr 09:00-12:00; PH off; Dec 31-Jan 03 off", "healthcare:speciality": "internal;surgery;psychiatry;physiatry", "website": "http://www.muroto-aiseikai.com", "addr:full": "高知県室戸市室津２２７３", "addr:country": "JP", "addr:province": "高知県", "addr:city": "室戸市", "addr:neighbourhood": "室津", "beds": "96", "source": "厚生労働省 医療情報ネットのオープンデータ (2026-06-01)", "_id": "3911395900340", "_座標の出典": "原データ"}}, {"type": "Feature", "geometry": {"type": "Point", "coordinates": [132.96164, 32.779311]}, "properties": {"amenity": "hospital", "healthcare": "hospital", "name": "足摺病院", "official_name": "足摺病院", "short_name": "足摺病院", "name:ja-Hira": "あしずりびょういん", "name:en": "Ashizuri Hospital", "opening_hours": "Mo,Tu,We,Th,Fr,Sa 08:40-12:00,13:00-17:00; PH off; Dec 31-Jan 03,Aug 15 off", "healthcare:speciality": "internal;cardiology;gastroenterology;surgery;orthopaedics;otolaryngology;psychiatry;physiatry", "website": "http://www.ashizuribyouin.com", "addr:full": "高知県土佐清水市旭町１８－７１", "addr:country": "JP", "addr:province": "高知県", "addr:city": "土佐清水市", "addr:neighbourhood": "旭町", "beds": "31", "source": "厚生労働省 医療情報ネットのオープンデータ (2026-06-01)", "_id": "3911396000120", "_座標の出典": "原データ"}}, {"type": "Feature", "geometry": {"type": "Point", "coordinates": [132.950803, 32.781221]}, "properties": {"amenity": "hospital", "healthcare": "hospital", "name": "渭南病院", "official_name": "渭南病院", "short_name": "渭南病院", "name:ja-Hira": "いなんびょういん", "name:en": "Inan Hospital", "opening_hours": "Mo,We,Th,Fr 09:00-12:00,14:00-17:00; Tu 09:00-13:00,14:00-17:00; Sa 09:00-12:00; PH off; Dec 31-Jan 03,Aug 15 off", "healthcare:speciality": "internal;endocrinology;pulmonology;cardiology;gastroenterology;surgery;neurosurgery;abdominal_surgery;orthopaedics;paediatrics;ophthalmology;otolaryngology;dermatology;urology;psychiatry;physiatry;anaesthetics", "website": "http://www.inan-hp.jp", "addr:full": "高知県土佐清水市越前町６ー１", "addr:country": "JP", "addr:province": "高知県", "addr:city": "土佐清水市", "addr:neighbourhood": "越前町", "beds": "105", "source": "厚生労働省 医療情報ネットのオープンデータ (2026-06-01)", "_id": "3911396000250", "_座標の出典": "原データ"}}, {"type": "Feature", "geometry": {"type": "Point", "coordinates": [132.954149, 32.782883]}, "properties": {"amenity": "hospital", "healthcare": "hospital", "name": "松谷病院", "official_name": "松谷病院", "short_name": "松谷病院", "name:ja-Hira": "まつたにびょういん", "name:en": "Matsutani Hospital", "opening_hours": "Mo,Tu,We,Th,Fr 08:30-12:00,13:30-17:00; Sa 08:30-12:00; PH off; Dec 31-Jan 03 off", "healthcare:speciality": "internal;cardiology;gastroenterology;nephrology;dialysis;paediatrics;physiatry", "website": "http://www.tampopo.or.jp/", "addr:full": "高知県土佐清水市天神町１４ー１８", "addr:country": "JP", "addr:province": "高知県", "addr:city": "土佐清水市", "addr:neighbourhood": "天神町", "beds": "54", "source": "厚生労働省 医療情報ネットのオープンデータ (2026-06-01)", "_id": "3911396000540", "_座標の出典": "原データ"}}, {"type": "Feature", "geometry": {"type": "Point", "coordinates": [133.622941, 33.569755]}, "properties": {"amenity": "hospital", "healthcare": "hospital", "name": "JA高知病院", "official_name": "ＪＡ高知病院", "short_name": "ＪＡ高知病院", "name:ja-Hira": "じぇいえい こうちびょういん", "name:ja-Latn": "Ja Kochi Byouin", "opening_hours": "Mo,Tu,We,Th,Fr 08:30-12:00,13:30-17:00; Sa 08:30-12:00; PH off; Dec 29-Jan 03 off", "healthcare:speciality": "internal;pulmonology;cardiology;gastroenterology;surgery;neurosurgery;orthopaedics;plastic_surgery;paediatrics;gynaecology;ophthalmology;otolaryngology;urology;physiatry;radiology;emergency;anaesthetics", "emergency": "yes", "website": "http://www.kouseiren.ja-kochi.or.jp", "addr:full": "高知県南国市明見字中野５２６－１", "addr:country": "JP", "addr:province": "高知県", "addr:city": "南国市", "addr:neighbourhood": "明見", "beds": "154", "source": "厚生労働省 医療情報ネットのオープンデータ (2026-06-01)", "_id": "3911396200180", "_座標の出典": "原データ"}}, {"type": "Feature", "geometry": {"type": "Point", "coordinates": [133.368372, 33.565782]}, "properties": {"amenity": "hospital", "healthcare": "hospital", "name": "さくら病院", "official_name": "さくら病院", "short_name": "さくら病院", "name:ja-Hira": "さくらびょういん", "name:ja-Latn": "Sakurabyoin", "opening_hours": "Mo,Tu,We,Th,Fr 09:00-12:30,13:30-16:00; Sa 09:00-12:00; PH off; Dec 30-Jan 03 off", "healthcare:speciality": "internal", "website": "https://okamotokai-sakurahospital.jimdofree.com", "addr:full": "高知県吾川郡いの町鹿敷１６２", "addr:country": "JP", "addr:province": "高知県", "addr:county": "吾川郡", "addr:city": "いの町", "addr:neighbourhood": "鹿敷", "beds": "60", "source": "厚生労働省 医療情報ネットのオープンデータ (2026-06-01)", "_id": "3911396300110", "_座標の出典": "原データ"}}, {"type": "Feature", "geometry": {"type": "Point", "coordinates": [133.512897, 33.507667]}, "properties": {"amenity": "hospital", "healthcare": "hospital", "name": "リハビリテーション病院すこやかな杜", "official_name": "リハビリテーション病院すこやかな杜", "short_name": "すこやかな杜", "name:ja-Hira": "りはびりてーしょんびょういん すこやかなもり", "opening_hours": "Mo,Tu,We,Th,Fr 08:30-12:30,13:30-17:30; Sa 08:30-12:30; PH off; Dec 31-Jan 03 off", "healthcare:speciality": "internal;neurosurgery;orthopaedics;physiatry", "website": "http://sukoyakanamori.or.jp/", "addr:full": "高知県高知市春野町芳原１３１６番１", "addr:country": "JP", "addr:province": "高知県", "addr:city": "高知市", "addr:neighbourhood": "春野町芳原", "beds": "60", "source": "厚生労働省 医療情報ネットのオープンデータ (2026-06-01)", "_id": "3911396300370", "_座標の出典": "原データ"}}]}