{"type": "FeatureCollection", "features": [{"type": "Feature", "geometry": {"type": "Point", "coordinates": [133.691073, 33.559206]}, "properties": {"healthcare": "midwife", "name": "ゆいま~る", "official_name": "ゆいま～る", "short_name": "ゆいま～る", "name:ja-Hira": "ゆいまーる", "addr:full": "高知県香南市野市町西野１７３３", "addr:country": "JP", "addr:province": "高知県", "addr:city": "香南市", "addr:neighbourhood": "野市町西野", "source": "厚生労働省 医療情報ネットのオープンデータ (2026-06-01)", "_id": "3941730000030", "_座標の出典": "原データ"}}, {"type": "Feature", "geometry": {"type": "Point", "coordinates": [133.556662, 33.501528]}, "properties": {"healthcare": "midwife", "name": "アニタ助産院", "official_name": "アニタ助産院", "short_name": "アニタ助産院", "name:ja-Hira": "あにたじょさんいん", "website": "http://wwwc.pikara.ne.jp/anita/", "addr:full": "高知県高知市長浜３番地", "addr:country": "JP", "addr:province": "高知県", "addr:city": "高知市", "addr:neighbourhood": "長浜", "source": "厚生労働省 医療情報ネットのオープンデータ (2026-06-01)", "_id": "3944390000001", "_座標の出典": "原データ"}}, {"type": "Feature", "geometry": {"type": "Point", "coordinates": [133.545303, 33.552717]}, "properties": {"healthcare": "midwife", "name": "貞弘助産所", "official_name": "貞弘助産所", "short_name": "貞弘助産所", "name:ja-Hira": "さだひろじょさんしょ", "name:ja-Latn": "Sadahiro Josanjo", "opening_hours": "Mo,Tu,Th,Fr 13:00-17:00; We,Sa 09:00-12:00; Su unknown; Dec 31-Jan 03 off", "addr:full": "高知県高知市桟橋通１丁目１番１０号", "addr:country": "JP", "addr:province": "高知県", "addr:city": "高知市", "addr:neighbourhood": "桟橋通一丁目", "addr:block_number": "1", "addr:housenumber": "10", "source": "厚生労働省 医療情報ネットのオープンデータ (2026-06-01)", "_id": "3944390000003", "_座標の出典": "原データ"}}, {"type": "Feature", "geometry": {"type": "Point", "coordinates": [133.49333, 33.539791]}, "properties": {"healthcare": "midwife", "name": "よつば助産院", "official_name": "ｍａｍａサポート　よつば助産院", "short_name": "よつば助産院", "opening_hours": "Mo,Tu,We,Th,Fr 09:00-18:00; PH off", "website": "http://yotsuba0404.web.fc2.com/", "addr:full": "高知県高知市朝倉甲", "addr:country": "JP", "addr:province": "高知県", "addr:city": "高知市", "addr:neighbourhood": "朝倉甲", "source": "厚生労働省 医療情報ネットのオープンデータ (2026-06-01)", "_id": "3944390000010", "_座標の出典": "原データ"}}, {"type": "Feature", "geometry": {"type": "Point", "coordinates": [132.90039, 32.986791]}, "properties": {"healthcare": "midwife", "name": "ひだまり助産院", "official_name": "ひだまり助産院", "short_name": "ひだまり助産院", "name:ja-Hira": "ひだまりじょさんいん", "name:ja-Latn": "Hidamarijosanin", "opening_hours": "Mo,Tu,We,Th,Fr,Sa,Su,PH 09:00-19:00", "website": "http://blogs.yahoo.co.jp/hidamari_josanin", "addr:full": "高知県四万十市具同７０５８－２４", "addr:country": "JP", "addr:province": "高知県", "addr:city": "四万十市", "addr:neighbourhood": "具同", "source": "厚生労働省 医療情報ネットのオープンデータ (2026-06-01)", "_id": "3944390000011", "_座標の出典": "原データ"}}, {"type": "Feature", "geometry": {"type": "Point", "coordinates": [133.630002, 33.591383]}, "properties": {"healthcare": "midwife", "name": "髙橋助産所", "official_name": "髙橋助産所", "short_name": "髙橋助産所", "name:ja-Hira": "たかはしじょさんしょ", "name:ja-Latn": "Takahashi Josansho", "opening_hours": "Mo,Tu,We,Th,Fr,Sa 08:30-17:00; PH off; Dec 24 off", "addr:full": "高知県南国市岡豊町八幡９６", "addr:country": "JP", "addr:province": "高知県", "addr:city": "南国市", "addr:neighbourhood": "岡豊町八幡", "source": "厚生労働省 医療情報ネットのオープンデータ (2026-06-01)", "_id": "3944390000012", "_座標の出典": "原データ"}}, {"type": "Feature", "geometry": {"type": "Point", "coordinates": [133.285028, 33.470022]}, "properties": {"healthcare": "midwife", "name": "むらた助産院", "official_name": "むらた助産院", "short_name": "むらた母乳哺育相談所", "name:ja-Hira": "むらたじょさんいん", "opening_hours": "Mo,Tu,We,Fr,Sa 09:00-12:00; PH off; Dec 31-Jan 03 off", "addr:full": "高知県高岡郡佐川町中組９０８", "addr:country": "JP", "addr:province": "高知県", "addr:county": "高岡郡", "addr:city": "佐川町", "addr:neighbourhood": "中組", "source": "厚生労働省 医療情報ネットのオープンデータ (2026-06-01)", "_id": "3944390000015", "_座標の出典": "原データ"}}, {"type": "Feature", "geometry": {"type": "Point", "coordinates": [133.49577, 33.485406]}, "properties": {"healthcare": "midwife", "name": "小梅助産院", "official_name": "小梅助産院", "short_name": "小梅助産院", "name:ja-Hira": "こうめじょさんいん", "opening_hours": "Mo,Tu,We,Th,Fr 09:00-17:00; PH off", "website": "https://sites.google.com/view/mwkoume", "addr:full": "高知県高知市春野町南ケ丘５丁目２ー９", "addr:country": "JP", "addr:province": "高知県", "addr:city": "高知市", "addr:neighbourhood": "春野町南ケ丘五丁目", "source": "厚生労働省 医療情報ネットのオープンデータ (2026-06-01)", "_id": "3944390000017", "_座標の出典": "原データ"}}, {"type": "Feature", "geometry": {"type": "Point", "coordinates": [133.252058, 33.532881]}, "properties": {"healthcare": "midwife", "name": "マタニティサポートわかつき", "official_name": "マタニティサポートわかつき", "short_name": "マタニティサポートわかつき", "name:ja-Hira": "またにてぃさぽーとわかつき", "name:en": "maternity support wakatsuki", "opening_hours": "Mo,Tu,We,Th,Fr 09:30-12:30,13:30-17:30; PH off; Dec 28-Jan 03,May 03 off", "addr:full": "高知県高岡郡越知町越知甲１７２５番地１", "addr:country": "JP", "addr:province": "高知県", "addr:county": "高岡郡", "addr:city": "越知町", "addr:neighbourhood": "越知", "source": "厚生労働省 医療情報ネットのオープンデータ (2026-06-01)", "_id": "3944390000027", "_座標の出典": "原データ"}}, {"type": "Feature", "geometry": {"type": "Point", "coordinates": [133.450295, 33.550153]}, "properties": {"healthcare": "midwife", "name": "真弓助産院", "official_name": "真弓助産院", "short_name": "真弓助産院", "name:ja-Hira": "まゆみじょさんいん", "name:ja-Latn": "Mayumi Jyosanin", "opening_hours": "Mo,Tu,We,Th,Fr,Sa,Su,PH 08:00-20:00", "website": "https://mayumi-jyosanin.net/", "addr:full": "高知県吾川郡いの町枝川８５８番地１７０", "addr:country": "JP", "addr:province": "高知県", "addr:county": "吾川郡", "addr:city": "いの町", "addr:neighbourhood": "枝川", "source": "厚生労働省 医療情報ネットのオープンデータ (2026-06-01)", "_id": "3944390000029", "_座標の出典": "原データ"}}, {"type": "Feature", "geometry": {"type": "Point", "coordinates": [133.579223, 33.590099]}, "properties": {"healthcare": "midwife", "name": "このは助産院", "official_name": "このは助産院", "short_name": "このは助産院", "name:ja-Hira": "このはじょさんいん", "name:ja-Latn": "Konohajyosanin", "opening_hours": "Mo,Tu,We,Th,Fr 09:00-17:00; PH off", "website": "https://konoha.on.omisenomikata.jp/", "addr:full": "高知県高知市一宮東町５丁目６番１９ー３号", "addr:country": "JP", "addr:province": "高知県", "addr:city": "高知市", "addr:neighbourhood": "一宮東町五丁目", "addr:block_number": "6", "addr:housenumber": "19", "source": "厚生労働省 医療情報ネットのオープンデータ (2026-06-01)", "_id": "3944393114560", "_座標の出典": "原データ"}}]}